<?xml version="1.0" encoding="UTF-8"?><gpx creator="Wikiloc - https://www.wikiloc.com" version="1.1" xmlns="http://www.topografix.com/GPX/1/1" xmlns:xsi="http://www.w3.org/2001/XMLSchema-instance" xsi:schemaLocation="http://www.topografix.com/GPX/1/1 http://www.topografix.com/GPX/1/1/gpx.xsd"><metadata><name>Wikiloc - Puigmal desde Err (100CIMS) (Francia)</name><author><name>nandomoneda</name><link href="https://www.wikiloc.com/wikiloc/user.do?id=161450"><text>nandomoneda on Wikiloc</text></link></author><link href="https://www.wikiloc.com/hiking-trails/puigmal-desde-err-100cims-francia-14306209"><text>Puigmal desde Err (100CIMS) (Francia) on Wikiloc</text></link><time>2016-08-03T16:06:19Z</time></metadata><trk><name>Puigmal desde Err (100CIMS) (Francia)</name><cmt></cmt><desc></desc><trkseg><trkpt lat="42.390844" lon="2.083800"><ele>2036.259</ele><time>2016-08-03T13:56:15Z</time></trkpt><trkpt lat="42.390805" lon="2.083870"><ele>2035.303</ele><time>2016-08-03T13:56:54Z</time></trkpt><trkpt lat="42.390756" lon="2.083981"><ele>2035.723</ele><time>2016-08-03T13:57:03Z</time></trkpt><trkpt lat="42.390721" lon="2.084079"><ele>2036.208</ele><time>2016-08-03T13:57:14Z</time></trkpt><trkpt lat="42.390653" lon="2.084186"><ele>2037.286</ele><time>2016-08-03T13:57:24Z</time></trkpt><trkpt lat="42.390584" lon="2.084298"><ele>2037.739</ele><time>2016-08-03T13:57:33Z</time></trkpt><trkpt lat="42.390533" lon="2.084408"><ele>2038.198</ele><time>2016-08-03T13:57:44Z</time></trkpt><trkpt lat="42.390475" lon="2.084535"><ele>2039.155</ele><time>2016-08-03T13:57:53Z</time></trkpt><trkpt lat="42.390423" lon="2.084641"><ele>2040.121</ele><time>2016-08-03T13:58:01Z</time></trkpt><trkpt lat="42.390370" lon="2.084750"><ele>2040.547</ele><time>2016-08-03T13:58:10Z</time></trkpt><trkpt lat="42.390311" lon="2.084866"><ele>2041.015</ele><time>2016-08-03T13:58:19Z</time></trkpt><trkpt lat="42.390253" lon="2.084985"><ele>2042.594</ele><time>2016-08-03T13:58:28Z</time></trkpt><trkpt lat="42.390185" lon="2.085118"><ele>2042.946</ele><time>2016-08-03T13:58:38Z</time></trkpt><trkpt lat="42.390142" lon="2.085261"><ele>2043.488</ele><time>2016-08-03T13:58:48Z</time></trkpt><trkpt lat="42.390086" lon="2.085401"><ele>2044.416</ele><time>2016-08-03T13:59:01Z</time></trkpt><trkpt lat="42.390036" lon="2.085531"><ele>2045.308</ele><time>2016-08-03T13:59:12Z</time></trkpt><trkpt lat="42.389985" lon="2.085659"><ele>2045.815</ele><time>2016-08-03T13:59:22Z</time></trkpt><trkpt lat="42.389926" lon="2.085770"><ele>2047.358</ele><time>2016-08-03T13:59:31Z</time></trkpt><trkpt lat="42.389876" lon="2.085898"><ele>2047.367</ele><time>2016-08-03T13:59:40Z</time></trkpt><trkpt lat="42.389832" lon="2.086009"><ele>2047.354</ele><time>2016-08-03T13:59:49Z</time></trkpt><trkpt lat="42.389788" lon="2.086114"><ele>2048.230</ele><time>2016-08-03T13:59:57Z</time></trkpt><trkpt lat="42.389717" lon="2.086229"><ele>2049.256</ele><time>2016-08-03T14:00:06Z</time></trkpt><trkpt lat="42.389664" lon="2.086329"><ele>2050.664</ele><time>2016-08-03T14:00:14Z</time></trkpt><trkpt lat="42.389606" lon="2.086434"><ele>2051.613</ele><time>2016-08-03T14:00:23Z</time></trkpt><trkpt lat="42.389543" lon="2.086548"><ele>2052.156</ele><time>2016-08-03T14:00:32Z</time></trkpt><trkpt lat="42.389489" lon="2.086649"><ele>2052.659</ele><time>2016-08-03T14:00:40Z</time></trkpt><trkpt lat="42.389431" lon="2.086753"><ele>2054.014</ele><time>2016-08-03T14:00:48Z</time></trkpt><trkpt lat="42.389373" lon="2.086866"><ele>2055.008</ele><time>2016-08-03T14:00:57Z</time></trkpt><trkpt lat="42.389315" lon="2.086973"><ele>2055.456</ele><time>2016-08-03T14:01:06Z</time></trkpt><trkpt lat="42.389247" lon="2.087070"><ele>2055.949</ele><time>2016-08-03T14:01:15Z</time></trkpt><trkpt lat="42.389182" lon="2.087175"><ele>2056.498</ele><time>2016-08-03T14:01:24Z</time></trkpt><trkpt lat="42.389110" lon="2.087267"><ele>2057.475</ele><time>2016-08-03T14:01:33Z</time></trkpt><trkpt lat="42.389038" lon="2.087366"><ele>2057.831</ele><time>2016-08-03T14:01:42Z</time></trkpt><trkpt lat="42.388965" lon="2.087460"><ele>2059.377</ele><time>2016-08-03T14:01:51Z</time></trkpt><trkpt lat="42.388901" lon="2.087553"><ele>2059.365</ele><time>2016-08-03T14:01:59Z</time></trkpt><trkpt lat="42.388830" lon="2.087652"><ele>2060.214</ele><time>2016-08-03T14:02:08Z</time></trkpt><trkpt lat="42.388762" lon="2.087757"><ele>2061.269</ele><time>2016-08-03T14:02:17Z</time></trkpt><trkpt lat="42.388690" lon="2.087859"><ele>2061.704</ele><time>2016-08-03T14:02:26Z</time></trkpt><trkpt lat="42.388620" lon="2.087966"><ele>2063.124</ele><time>2016-08-03T14:02:35Z</time></trkpt><trkpt lat="42.388553" lon="2.088079"><ele>2063.108</ele><time>2016-08-03T14:02:44Z</time></trkpt><trkpt lat="42.388494" lon="2.088167"><ele>2064.687</ele><time>2016-08-03T14:02:52Z</time></trkpt><trkpt lat="42.388436" lon="2.088268"><ele>2064.640</ele><time>2016-08-03T14:03:00Z</time></trkpt><trkpt lat="42.388372" lon="2.088367"><ele>2066.099</ele><time>2016-08-03T14:03:09Z</time></trkpt><trkpt lat="42.388306" lon="2.088458"><ele>2066.526</ele><time>2016-08-03T14:03:18Z</time></trkpt><trkpt lat="42.388241" lon="2.088568"><ele>2067.092</ele><time>2016-08-03T14:03:27Z</time></trkpt><trkpt lat="42.388177" lon="2.088667"><ele>2068.978</ele><time>2016-08-03T14:03:36Z</time></trkpt><trkpt lat="42.388109" lon="2.088750"><ele>2069.446</ele><time>2016-08-03T14:03:45Z</time></trkpt><trkpt lat="42.388061" lon="2.088844"><ele>2070.835</ele><time>2016-08-03T14:03:55Z</time></trkpt><trkpt lat="42.387991" lon="2.088944"><ele>2071.821</ele><time>2016-08-03T14:04:04Z</time></trkpt><trkpt lat="42.387925" lon="2.089037"><ele>2072.341</ele><time>2016-08-03T14:04:14Z</time></trkpt><trkpt lat="42.387861" lon="2.089157"><ele>2072.305</ele><time>2016-08-03T14:04:28Z</time></trkpt><trkpt lat="42.387814" lon="2.089280"><ele>2072.708</ele><time>2016-08-03T14:04:37Z</time></trkpt><trkpt lat="42.387757" lon="2.089377"><ele>2073.273</ele><time>2016-08-03T14:04:46Z</time></trkpt><trkpt lat="42.387714" lon="2.089491"><ele>2075.186</ele><time>2016-08-03T14:04:55Z</time></trkpt><trkpt lat="42.387642" lon="2.089586"><ele>2079.585</ele><time>2016-08-03T14:05:06Z</time></trkpt><trkpt lat="42.387575" lon="2.089682"><ele>2080.982</ele><time>2016-08-03T14:05:16Z</time></trkpt><trkpt lat="42.387516" lon="2.089780"><ele>2082.498</ele><time>2016-08-03T14:05:25Z</time></trkpt><trkpt lat="42.387465" lon="2.089888"><ele>2082.894</ele><time>2016-08-03T14:05:35Z</time></trkpt><trkpt lat="42.387409" lon="2.089984"><ele>2084.332</ele><time>2016-08-03T14:05:45Z</time></trkpt><trkpt lat="42.387357" lon="2.090096"><ele>2085.791</ele><time>2016-08-03T14:05:54Z</time></trkpt><trkpt lat="42.387317" lon="2.090203"><ele>2087.636</ele><time>2016-08-03T14:06:04Z</time></trkpt><trkpt lat="42.387276" lon="2.090319"><ele>2089.617</ele><time>2016-08-03T14:06:16Z</time></trkpt><trkpt lat="42.387237" lon="2.090442"><ele>2090.518</ele><time>2016-08-03T14:06:31Z</time></trkpt><trkpt lat="42.387185" lon="2.090558"><ele>2092.908</ele><time>2016-08-03T14:06:41Z</time></trkpt><trkpt lat="42.387125" lon="2.090655"><ele>2094.924</ele><time>2016-08-03T14:06:50Z</time></trkpt><trkpt lat="42.387062" lon="2.090726"><ele>2096.387</ele><time>2016-08-03T14:06:59Z</time></trkpt><trkpt lat="42.386993" lon="2.090812"><ele>2097.366</ele><time>2016-08-03T14:07:09Z</time></trkpt><trkpt lat="42.386925" lon="2.090901"><ele>2099.743</ele><time>2016-08-03T14:07:19Z</time></trkpt><trkpt lat="42.386855" lon="2.090979"><ele>2101.189</ele><time>2016-08-03T14:07:29Z</time></trkpt><trkpt lat="42.386792" lon="2.091079"><ele>2101.625</ele><time>2016-08-03T14:07:38Z</time></trkpt><trkpt lat="42.386727" lon="2.091175"><ele>2104.583</ele><time>2016-08-03T14:07:49Z</time></trkpt><trkpt lat="42.386660" lon="2.091269"><ele>2105.952</ele><time>2016-08-03T14:07:59Z</time></trkpt><trkpt lat="42.386602" lon="2.091380"><ele>2107.453</ele><time>2016-08-03T14:08:09Z</time></trkpt><trkpt lat="42.386543" lon="2.091491"><ele>2108.304</ele><time>2016-08-03T14:08:19Z</time></trkpt><trkpt lat="42.386481" lon="2.091580"><ele>2110.214</ele><time>2016-08-03T14:08:28Z</time></trkpt><trkpt lat="42.386419" lon="2.091679"><ele>2111.208</ele><time>2016-08-03T14:08:37Z</time></trkpt><trkpt lat="42.386353" lon="2.091764"><ele>2113.156</ele><time>2016-08-03T14:08:47Z</time></trkpt><trkpt lat="42.386291" lon="2.091865"><ele>2114.689</ele><time>2016-08-03T14:08:56Z</time></trkpt><trkpt lat="42.386224" lon="2.091966"><ele>2116.558</ele><time>2016-08-03T14:09:07Z</time></trkpt><trkpt lat="42.386164" lon="2.092063"><ele>2118.455</ele><time>2016-08-03T14:09:17Z</time></trkpt><trkpt lat="42.386102" lon="2.092170"><ele>2119.881</ele><time>2016-08-03T14:09:28Z</time></trkpt><trkpt lat="42.386028" lon="2.092261"><ele>2121.847</ele><time>2016-08-03T14:09:39Z</time></trkpt><trkpt lat="42.385976" lon="2.092345"><ele>2123.285</ele><time>2016-08-03T14:09:50Z</time></trkpt><trkpt lat="42.385922" lon="2.092448"><ele>2125.694</ele><time>2016-08-03T14:10:01Z</time></trkpt><trkpt lat="42.385861" lon="2.092512"><ele>2127.528</ele><time>2016-08-03T14:10:27Z</time></trkpt><trkpt lat="42.385792" lon="2.092614"><ele>2129.589</ele><time>2016-08-03T14:10:39Z</time></trkpt><trkpt lat="42.385724" lon="2.092699"><ele>2131.917</ele><time>2016-08-03T14:10:51Z</time></trkpt><trkpt lat="42.385677" lon="2.092815"><ele>2134.308</ele><time>2016-08-03T14:11:02Z</time></trkpt><trkpt lat="42.385626" lon="2.092928"><ele>2136.713</ele><time>2016-08-03T14:11:13Z</time></trkpt><trkpt lat="42.385580" lon="2.093041"><ele>2138.696</ele><time>2016-08-03T14:11:25Z</time></trkpt><trkpt lat="42.385547" lon="2.093156"><ele>2140.035</ele><time>2016-08-03T14:11:36Z</time></trkpt><trkpt lat="42.385509" lon="2.093259"><ele>2142.922</ele><time>2016-08-03T14:11:47Z</time></trkpt><trkpt lat="42.385483" lon="2.093378"><ele>2145.388</ele><time>2016-08-03T14:12:00Z</time></trkpt><trkpt lat="42.385483" lon="2.093500"><ele>2147.714</ele><time>2016-08-03T14:12:13Z</time></trkpt><trkpt lat="42.385445" lon="2.093620"><ele>2149.712</ele><time>2016-08-03T14:12:27Z</time></trkpt><trkpt lat="42.385416" lon="2.093748"><ele>2152.171</ele><time>2016-08-03T14:12:40Z</time></trkpt><trkpt lat="42.385417" lon="2.093880"><ele>2154.585</ele><time>2016-08-03T14:12:53Z</time></trkpt><trkpt lat="42.385428" lon="2.094009"><ele>2155.489</ele><time>2016-08-03T14:13:05Z</time></trkpt><trkpt lat="42.385425" lon="2.094131"><ele>2157.317</ele><time>2016-08-03T14:13:16Z</time></trkpt><trkpt lat="42.385397" lon="2.094238"><ele>2160.208</ele><time>2016-08-03T14:13:29Z</time></trkpt><trkpt lat="42.385369" lon="2.094360"><ele>2163.159</ele><time>2016-08-03T14:13:41Z</time></trkpt><trkpt lat="42.385345" lon="2.094477"><ele>2165.062</ele><time>2016-08-03T14:13:52Z</time></trkpt><trkpt lat="42.385330" lon="2.094608"><ele>2167.091</ele><time>2016-08-03T14:14:05Z</time></trkpt><trkpt lat="42.385331" lon="2.094724"><ele>2168.978</ele><time>2016-08-03T14:14:16Z</time></trkpt><trkpt lat="42.385340" lon="2.094812"><ele>2170.364</ele><time>2016-08-03T14:14:58Z</time></trkpt><trkpt lat="42.385306" lon="2.094911"><ele>2171.880</ele><time>2016-08-03T14:15:14Z</time></trkpt><trkpt lat="42.385265" lon="2.095018"><ele>2174.268</ele><time>2016-08-03T14:15:29Z</time></trkpt><trkpt lat="42.385239" lon="2.095136"><ele>2177.037</ele><time>2016-08-03T14:15:42Z</time></trkpt><trkpt lat="42.385212" lon="2.095254"><ele>2179.511</ele><time>2016-08-03T14:15:54Z</time></trkpt><trkpt lat="42.385181" lon="2.095366"><ele>2180.921</ele><time>2016-08-03T14:16:06Z</time></trkpt><trkpt lat="42.385156" lon="2.095484"><ele>2183.303</ele><time>2016-08-03T14:16:18Z</time></trkpt><trkpt lat="42.385147" lon="2.095615"><ele>2186.208</ele><time>2016-08-03T14:16:29Z</time></trkpt><trkpt lat="42.385147" lon="2.095740"><ele>2187.612</ele><time>2016-08-03T14:16:40Z</time></trkpt><trkpt lat="42.385157" lon="2.095866"><ele>2189.115</ele><time>2016-08-03T14:16:51Z</time></trkpt><trkpt lat="42.385184" lon="2.095987"><ele>2191.054</ele><time>2016-08-03T14:17:10Z</time></trkpt><trkpt lat="42.385198" lon="2.096106"><ele>2192.411</ele><time>2016-08-03T14:17:21Z</time></trkpt><trkpt lat="42.385209" lon="2.096227"><ele>2192.997</ele><time>2016-08-03T14:17:30Z</time></trkpt><trkpt lat="42.385229" lon="2.096351"><ele>2194.843</ele><time>2016-08-03T14:17:40Z</time></trkpt><trkpt lat="42.385243" lon="2.096479"><ele>2196.311</ele><time>2016-08-03T14:17:51Z</time></trkpt><trkpt lat="42.385258" lon="2.096598"><ele>2198.260</ele><time>2016-08-03T14:18:02Z</time></trkpt><trkpt lat="42.385282" lon="2.096749"><ele>2200.662</ele><time>2016-08-03T14:18:13Z</time></trkpt><trkpt lat="42.385296" lon="2.096868"><ele>2202.083</ele><time>2016-08-03T14:18:24Z</time></trkpt><trkpt lat="42.385304" lon="2.096986"><ele>2204.411</ele><time>2016-08-03T14:18:36Z</time></trkpt><trkpt lat="42.385366" lon="2.097094"><ele>2205.908</ele><time>2016-08-03T14:18:46Z</time></trkpt><trkpt lat="42.385431" lon="2.097198"><ele>2206.447</ele><time>2016-08-03T14:18:55Z</time></trkpt><trkpt lat="42.385496" lon="2.097293"><ele>2207.870</ele><time>2016-08-03T14:19:04Z</time></trkpt><trkpt lat="42.385551" lon="2.097386"><ele>2208.379</ele><time>2016-08-03T14:19:13Z</time></trkpt><trkpt lat="42.385612" lon="2.097472"><ele>2211.236</ele><time>2016-08-03T14:19:22Z</time></trkpt><trkpt lat="42.385677" lon="2.097545"><ele>2211.272</ele><time>2016-08-03T14:19:31Z</time></trkpt><trkpt lat="42.385747" lon="2.097632"><ele>2212.648</ele><time>2016-08-03T14:19:40Z</time></trkpt><trkpt lat="42.385819" lon="2.097699"><ele>2213.676</ele><time>2016-08-03T14:19:49Z</time></trkpt><trkpt lat="42.385904" lon="2.097763"><ele>2214.565</ele><time>2016-08-03T14:20:30Z</time></trkpt><trkpt lat="42.385952" lon="2.097874"><ele>2216.074</ele><time>2016-08-03T14:20:39Z</time></trkpt><trkpt lat="42.385968" lon="2.098005"><ele>2216.956</ele><time>2016-08-03T14:20:49Z</time></trkpt><trkpt lat="42.385982" lon="2.098130"><ele>2218.921</ele><time>2016-08-03T14:21:01Z</time></trkpt><trkpt lat="42.386030" lon="2.098242"><ele>2221.708</ele><time>2016-08-03T14:21:13Z</time></trkpt><trkpt lat="42.386039" lon="2.098356"><ele>2223.278</ele><time>2016-08-03T14:21:24Z</time></trkpt><trkpt lat="42.386092" lon="2.098448"><ele>2225.631</ele><time>2016-08-03T14:21:37Z</time></trkpt><trkpt lat="42.386092" lon="2.098566"><ele>2228.090</ele><time>2016-08-03T14:21:50Z</time></trkpt><trkpt lat="42.386145" lon="2.098682"><ele>2229.487</ele><time>2016-08-03T14:22:02Z</time></trkpt><trkpt lat="42.386180" lon="2.098792"><ele>2230.443</ele><time>2016-08-03T14:22:14Z</time></trkpt><trkpt lat="42.386246" lon="2.098890"><ele>2232.379</ele><time>2016-08-03T14:22:26Z</time></trkpt><trkpt lat="42.386313" lon="2.098962"><ele>2233.837</ele><time>2016-08-03T14:22:39Z</time></trkpt><trkpt lat="42.386373" lon="2.099060"><ele>2235.216</ele><time>2016-08-03T14:22:51Z</time></trkpt><trkpt lat="42.386418" lon="2.099179"><ele>2236.251</ele><time>2016-08-03T14:23:03Z</time></trkpt><trkpt lat="42.386473" lon="2.099280"><ele>2238.601</ele><time>2016-08-03T14:23:16Z</time></trkpt><trkpt lat="42.386513" lon="2.099407"><ele>2239.511</ele><time>2016-08-03T14:23:28Z</time></trkpt><trkpt lat="42.386541" lon="2.099521"><ele>2241.908</ele><time>2016-08-03T14:23:40Z</time></trkpt><trkpt lat="42.386561" lon="2.099634"><ele>2243.436</ele><time>2016-08-03T14:23:51Z</time></trkpt><trkpt lat="42.386589" lon="2.099734"><ele>2245.359</ele><time>2016-08-03T14:24:03Z</time></trkpt><trkpt lat="42.386645" lon="2.099834"><ele>2246.728</ele><time>2016-08-03T14:24:15Z</time></trkpt><trkpt lat="42.386689" lon="2.099944"><ele>2248.775</ele><time>2016-08-03T14:24:28Z</time></trkpt><trkpt lat="42.386750" lon="2.100002"><ele>2250.151</ele><time>2016-08-03T14:24:41Z</time></trkpt><trkpt lat="42.386816" lon="2.100113"><ele>2253.077</ele><time>2016-08-03T14:24:55Z</time></trkpt><trkpt lat="42.386882" lon="2.100194"><ele>2254.435</ele><time>2016-08-03T14:25:08Z</time></trkpt><trkpt lat="42.386928" lon="2.100300"><ele>2256.464</ele><time>2016-08-03T14:25:18Z</time></trkpt><trkpt lat="42.386973" lon="2.100408"><ele>2257.836</ele><time>2016-08-03T14:25:30Z</time></trkpt><trkpt lat="42.387016" lon="2.100520"><ele>2259.717</ele><time>2016-08-03T14:25:42Z</time></trkpt><trkpt lat="42.387030" lon="2.100644"><ele>2260.718</ele><time>2016-08-03T14:25:53Z</time></trkpt><trkpt lat="42.387084" lon="2.100740"><ele>2262.608</ele><time>2016-08-03T14:26:04Z</time></trkpt><trkpt lat="42.387116" lon="2.100853"><ele>2264.594</ele><time>2016-08-03T14:26:15Z</time></trkpt><trkpt lat="42.387174" lon="2.100952"><ele>2266.037</ele><time>2016-08-03T14:26:27Z</time></trkpt><trkpt lat="42.387222" lon="2.101037"><ele>2268.496</ele><time>2016-08-03T14:26:56Z</time></trkpt><trkpt lat="42.387273" lon="2.101157"><ele>2270.833</ele><time>2016-08-03T14:27:08Z</time></trkpt><trkpt lat="42.387344" lon="2.101245"><ele>2272.739</ele><time>2016-08-03T14:27:20Z</time></trkpt><trkpt lat="42.387391" lon="2.101354"><ele>2275.655</ele><time>2016-08-03T14:27:32Z</time></trkpt><trkpt lat="42.387473" lon="2.101410"><ele>2277.053</ele><time>2016-08-03T14:27:43Z</time></trkpt><trkpt lat="42.387555" lon="2.101438"><ele>2277.582</ele><time>2016-08-03T14:27:54Z</time></trkpt><trkpt lat="42.387611" lon="2.101535"><ele>2279.465</ele><time>2016-08-03T14:28:07Z</time></trkpt><trkpt lat="42.387678" lon="2.101623"><ele>2281.468</ele><time>2016-08-03T14:28:19Z</time></trkpt><trkpt lat="42.387726" lon="2.101720"><ele>2282.314</ele><time>2016-08-03T14:28:33Z</time></trkpt><trkpt lat="42.387802" lon="2.101813"><ele>2284.708</ele><time>2016-08-03T14:28:46Z</time></trkpt><trkpt lat="42.387862" lon="2.101893"><ele>2287.657</ele><time>2016-08-03T14:29:04Z</time></trkpt><trkpt lat="42.387923" lon="2.101911"><ele>2291.480</ele><time>2016-08-03T14:29:23Z</time></trkpt><trkpt lat="42.387981" lon="2.101986"><ele>2294.869</ele><time>2016-08-03T14:29:41Z</time></trkpt><trkpt lat="42.388052" lon="2.102064"><ele>2298.226</ele><time>2016-08-03T14:30:05Z</time></trkpt><trkpt lat="42.388109" lon="2.102135"><ele>2300.672</ele><time>2016-08-03T14:30:22Z</time></trkpt><trkpt lat="42.388110" lon="2.102254"><ele>2304.458</ele><time>2016-08-03T14:30:41Z</time></trkpt><trkpt lat="42.388155" lon="2.102352"><ele>2307.826</ele><time>2016-08-03T14:30:58Z</time></trkpt><trkpt lat="42.388153" lon="2.102447"><ele>2310.745</ele><time>2016-08-03T14:31:39Z</time></trkpt><trkpt lat="42.388180" lon="2.102571"><ele>2314.024</ele><time>2016-08-03T14:31:55Z</time></trkpt><trkpt lat="42.388186" lon="2.102624"><ele>2316.904</ele><time>2016-08-03T14:32:12Z</time></trkpt><trkpt lat="42.388194" lon="2.102769"><ele>2321.214</ele><time>2016-08-03T14:32:32Z</time></trkpt><trkpt lat="42.388206" lon="2.102895"><ele>2323.608</ele><time>2016-08-03T14:32:47Z</time></trkpt><trkpt lat="42.388182" lon="2.103005"><ele>2326.133</ele><time>2016-08-03T14:33:18Z</time></trkpt><trkpt lat="42.388134" lon="2.103108"><ele>2326.186</ele><time>2016-08-03T14:33:26Z</time></trkpt><trkpt lat="42.388088" lon="2.103224"><ele>2326.165</ele><time>2016-08-03T14:33:36Z</time></trkpt><trkpt lat="42.388029" lon="2.103325"><ele>2327.592</ele><time>2016-08-03T14:33:45Z</time></trkpt><trkpt lat="42.387959" lon="2.103396"><ele>2326.558</ele><time>2016-08-03T14:33:54Z</time></trkpt><trkpt lat="42.387997" lon="2.103522"><ele>2328.534</ele><time>2016-08-03T14:34:06Z</time></trkpt><trkpt lat="42.388009" lon="2.103645"><ele>2331.322</ele><time>2016-08-03T14:34:19Z</time></trkpt><trkpt lat="42.388051" lon="2.103772"><ele>2333.791</ele><time>2016-08-03T14:34:33Z</time></trkpt><trkpt lat="42.388107" lon="2.103882"><ele>2335.737</ele><time>2016-08-03T14:34:46Z</time></trkpt><trkpt lat="42.388163" lon="2.103986"><ele>2337.649</ele><time>2016-08-03T14:34:59Z</time></trkpt><trkpt lat="42.388211" lon="2.104083"><ele>2340.013</ele><time>2016-08-03T14:35:11Z</time></trkpt><trkpt lat="42.388231" lon="2.104204"><ele>2341.408</ele><time>2016-08-03T14:35:22Z</time></trkpt><trkpt lat="42.388310" lon="2.104278"><ele>2342.444</ele><time>2016-08-03T14:35:34Z</time></trkpt><trkpt lat="42.388391" lon="2.104338"><ele>2344.867</ele><time>2016-08-03T14:35:47Z</time></trkpt><trkpt lat="42.388440" lon="2.104440"><ele>2346.766</ele><time>2016-08-03T14:35:58Z</time></trkpt><trkpt lat="42.388440" lon="2.104568"><ele>2348.223</ele><time>2016-08-03T14:36:10Z</time></trkpt><trkpt lat="42.388387" lon="2.104663"><ele>2350.659</ele><time>2016-08-03T14:36:25Z</time></trkpt><trkpt lat="42.388365" lon="2.104768"><ele>2352.575</ele><time>2016-08-03T14:36:39Z</time></trkpt><trkpt lat="42.388353" lon="2.104865"><ele>2356.313</ele><time>2016-08-03T14:37:00Z</time></trkpt><trkpt lat="42.388374" lon="2.104937"><ele>2361.142</ele><time>2016-08-03T14:37:19Z</time></trkpt><trkpt lat="42.388392" lon="2.105015"><ele>2363.579</ele><time>2016-08-03T14:37:54Z</time></trkpt><trkpt lat="42.388464" lon="2.105111"><ele>2365.505</ele><time>2016-08-03T14:38:09Z</time></trkpt><trkpt lat="42.388457" lon="2.105224"><ele>2368.425</ele><time>2016-08-03T14:38:24Z</time></trkpt><trkpt lat="42.388418" lon="2.105310"><ele>2369.808</ele><time>2016-08-03T14:38:54Z</time></trkpt><trkpt lat="42.388337" lon="2.105374"><ele>2372.728</ele><time>2016-08-03T14:39:16Z</time></trkpt><trkpt lat="42.388249" lon="2.105425"><ele>2377.021</ele><time>2016-08-03T14:39:34Z</time></trkpt><trkpt lat="42.388185" lon="2.105447"><ele>2378.950</ele><time>2016-08-03T14:40:13Z</time></trkpt><trkpt lat="42.388224" lon="2.105579"><ele>2381.837</ele><time>2016-08-03T14:40:28Z</time></trkpt><trkpt lat="42.388295" lon="2.105665"><ele>2384.773</ele><time>2016-08-03T14:40:42Z</time></trkpt><trkpt lat="42.388377" lon="2.105746"><ele>2386.669</ele><time>2016-08-03T14:40:54Z</time></trkpt><trkpt lat="42.388451" lon="2.105828"><ele>2388.137</ele><time>2016-08-03T14:41:08Z</time></trkpt><trkpt lat="42.388534" lon="2.105888"><ele>2390.526</ele><time>2016-08-03T14:41:22Z</time></trkpt><trkpt lat="42.388615" lon="2.105950"><ele>2393.843</ele><time>2016-08-03T14:41:39Z</time></trkpt><trkpt lat="42.388708" lon="2.105938"><ele>2395.764</ele><time>2016-08-03T14:41:53Z</time></trkpt><trkpt lat="42.388779" lon="2.105868"><ele>2397.710</ele><time>2016-08-03T14:42:08Z</time></trkpt><trkpt lat="42.388891" lon="2.105916"><ele>2401.508</ele><time>2016-08-03T14:42:26Z</time></trkpt><trkpt lat="42.388895" lon="2.105948"><ele>2404.455</ele><time>2016-08-03T14:42:41Z</time></trkpt><trkpt lat="42.388918" lon="2.106008"><ele>2406.868</ele><time>2016-08-03T14:43:07Z</time></trkpt><trkpt lat="42.389023" lon="2.106011"><ele>2410.287</ele><time>2016-08-03T14:43:22Z</time></trkpt><trkpt lat="42.389096" lon="2.106065"><ele>2412.654</ele><time>2016-08-03T14:43:39Z</time></trkpt><trkpt lat="42.389026" lon="2.106170"><ele>2415.560</ele><time>2016-08-03T14:43:58Z</time></trkpt><trkpt lat="42.389094" lon="2.106225"><ele>2417.976</ele><time>2016-08-03T14:44:14Z</time></trkpt><trkpt lat="42.389195" lon="2.106264"><ele>2420.744</ele><time>2016-08-03T14:44:31Z</time></trkpt><trkpt lat="42.389258" lon="2.106318"><ele>2423.663</ele><time>2016-08-03T14:44:47Z</time></trkpt><trkpt lat="42.389237" lon="2.106414"><ele>2426.568</ele><time>2016-08-03T14:45:04Z</time></trkpt><trkpt lat="42.389284" lon="2.106529"><ele>2429.442</ele><time>2016-08-03T14:45:20Z</time></trkpt><trkpt lat="42.389309" lon="2.106635"><ele>2432.826</ele><time>2016-08-03T14:45:38Z</time></trkpt><trkpt lat="42.389364" lon="2.106737"><ele>2435.208</ele><time>2016-08-03T14:45:53Z</time></trkpt><trkpt lat="42.389392" lon="2.106841"><ele>2438.527</ele><time>2016-08-03T14:46:06Z</time></trkpt><trkpt lat="42.389457" lon="2.106954"><ele>2440.020</ele><time>2016-08-03T14:46:20Z</time></trkpt><trkpt lat="42.389485" lon="2.107061"><ele>2442.939</ele><time>2016-08-03T14:46:41Z</time></trkpt><trkpt lat="42.389489" lon="2.107137"><ele>2443.366</ele><time>2016-08-03T14:47:57Z</time></trkpt><trkpt lat="42.389518" lon="2.107274"><ele>2445.332</ele><time>2016-08-03T14:48:11Z</time></trkpt><trkpt lat="42.389558" lon="2.107383"><ele>2446.218</ele><time>2016-08-03T14:48:29Z</time></trkpt><trkpt lat="42.389613" lon="2.107493"><ele>2448.646</ele><time>2016-08-03T14:48:44Z</time></trkpt><trkpt lat="42.389652" lon="2.107613"><ele>2450.595</ele><time>2016-08-03T14:49:00Z</time></trkpt><trkpt lat="42.389691" lon="2.107723"><ele>2452.045</ele><time>2016-08-03T14:49:14Z</time></trkpt><trkpt lat="42.389747" lon="2.107830"><ele>2453.947</ele><time>2016-08-03T14:49:34Z</time></trkpt><trkpt lat="42.389804" lon="2.107914"><ele>2457.311</ele><time>2016-08-03T14:49:52Z</time></trkpt><trkpt lat="42.389880" lon="2.107984"><ele>2460.208</ele><time>2016-08-03T14:50:09Z</time></trkpt><trkpt lat="42.389963" lon="2.108025"><ele>2463.575</ele><time>2016-08-03T14:50:27Z</time></trkpt><trkpt lat="42.390007" lon="2.108131"><ele>2465.428</ele><time>2016-08-03T14:50:43Z</time></trkpt><trkpt lat="42.390085" lon="2.108200"><ele>2468.817</ele><time>2016-08-03T14:51:02Z</time></trkpt><trkpt lat="42.390105" lon="2.108296"><ele>2470.714</ele><time>2016-08-03T14:51:34Z</time></trkpt><trkpt lat="42.390175" lon="2.108378"><ele>2474.180</ele><time>2016-08-03T14:51:53Z</time></trkpt><trkpt lat="42.390214" lon="2.108469"><ele>2477.026</ele><time>2016-08-03T14:52:14Z</time></trkpt><trkpt lat="42.390272" lon="2.108544"><ele>2480.834</ele><time>2016-08-03T14:53:00Z</time></trkpt><trkpt lat="42.390364" lon="2.108612"><ele>2484.723</ele><time>2016-08-03T14:53:19Z</time></trkpt><trkpt lat="42.390414" lon="2.108694"><ele>2488.535</ele><time>2016-08-03T14:53:38Z</time></trkpt><trkpt lat="42.390483" lon="2.108759"><ele>2491.486</ele><time>2016-08-03T14:53:59Z</time></trkpt><trkpt lat="42.390503" lon="2.108840"><ele>2494.314</ele><time>2016-08-03T14:54:39Z</time></trkpt><trkpt lat="42.390584" lon="2.108925"><ele>2497.608</ele><time>2016-08-03T14:54:53Z</time></trkpt><trkpt lat="42.390659" lon="2.108965"><ele>2499.614</ele><time>2016-08-03T14:55:25Z</time></trkpt><trkpt lat="42.390748" lon="2.109020"><ele>2502.027</ele><time>2016-08-03T14:55:38Z</time></trkpt><trkpt lat="42.390843" lon="2.109064"><ele>2503.916</ele><time>2016-08-03T14:55:54Z</time></trkpt><trkpt lat="42.390894" lon="2.109125"><ele>2507.333</ele><time>2016-08-03T14:56:12Z</time></trkpt><trkpt lat="42.390952" lon="2.109191"><ele>2509.279</ele><time>2016-08-03T14:56:27Z</time></trkpt><trkpt lat="42.391053" lon="2.109218"><ele>2512.185</ele><time>2016-08-03T14:56:43Z</time></trkpt><trkpt lat="42.391116" lon="2.109264"><ele>2515.013</ele><time>2016-08-03T14:56:59Z</time></trkpt><trkpt lat="42.391160" lon="2.109330"><ele>2516.992</ele><time>2016-08-03T14:57:15Z</time></trkpt><trkpt lat="42.391176" lon="2.109431"><ele>2520.224</ele><time>2016-08-03T14:57:34Z</time></trkpt><trkpt lat="42.391246" lon="2.109493"><ele>2524.104</ele><time>2016-08-03T14:57:57Z</time></trkpt><trkpt lat="42.391302" lon="2.109575"><ele>2526.514</ele><time>2016-08-03T14:58:15Z</time></trkpt><trkpt lat="42.391384" lon="2.109632"><ele>2529.908</ele><time>2016-08-03T14:58:36Z</time></trkpt><trkpt lat="42.391383" lon="2.109742"><ele>2532.753</ele><time>2016-08-03T14:58:55Z</time></trkpt><trkpt lat="42.391367" lon="2.109830"><ele>2536.176</ele><time>2016-08-03T14:59:11Z</time></trkpt><trkpt lat="42.391451" lon="2.109892"><ele>2539.055</ele><time>2016-08-03T14:59:28Z</time></trkpt><trkpt lat="42.391537" lon="2.109926"><ele>2541.942</ele><time>2016-08-03T14:59:48Z</time></trkpt><trkpt lat="42.391555" lon="2.110009"><ele>2545.278</ele><time>2016-08-03T15:00:07Z</time></trkpt><trkpt lat="42.391558" lon="2.110092"><ele>2548.664</ele><time>2016-08-03T15:00:27Z</time></trkpt><trkpt lat="42.391634" lon="2.110172"><ele>2551.532</ele><time>2016-08-03T15:00:48Z</time></trkpt><trkpt lat="42.391673" lon="2.110233"><ele>2554.821</ele><time>2016-08-03T15:01:24Z</time></trkpt><trkpt lat="42.391735" lon="2.110276"><ele>2557.266</ele><time>2016-08-03T15:01:41Z</time></trkpt><trkpt lat="42.391763" lon="2.110364"><ele>2560.129</ele><time>2016-08-03T15:02:02Z</time></trkpt><trkpt lat="42.391804" lon="2.110424"><ele>2563.521</ele><time>2016-08-03T15:02:17Z</time></trkpt><trkpt lat="42.391853" lon="2.110541"><ele>2564.908</ele><time>2016-08-03T15:02:31Z</time></trkpt><trkpt lat="42.391882" lon="2.110585"><ele>2567.817</ele><time>2016-08-03T15:02:54Z</time></trkpt><trkpt lat="42.391926" lon="2.110677"><ele>2571.290</ele><time>2016-08-03T15:03:11Z</time></trkpt><trkpt lat="42.392011" lon="2.110736"><ele>2573.199</ele><time>2016-08-03T15:03:26Z</time></trkpt><trkpt lat="42.392051" lon="2.110839"><ele>2577.446</ele><time>2016-08-03T15:03:44Z</time></trkpt><trkpt lat="42.392118" lon="2.110933"><ele>2579.872</ele><time>2016-08-03T15:04:02Z</time></trkpt><trkpt lat="42.392134" lon="2.111029"><ele>2582.748</ele><time>2016-08-03T15:04:34Z</time></trkpt><trkpt lat="42.392139" lon="2.111126"><ele>2586.676</ele><time>2016-08-03T15:04:50Z</time></trkpt><trkpt lat="42.392213" lon="2.111206"><ele>2589.045</ele><time>2016-08-03T15:05:22Z</time></trkpt><trkpt lat="42.392322" lon="2.111256"><ele>2590.978</ele><time>2016-08-03T15:05:36Z</time></trkpt><trkpt lat="42.392338" lon="2.111349"><ele>2594.733</ele><time>2016-08-03T15:05:53Z</time></trkpt><trkpt lat="42.392371" lon="2.111401"><ele>2598.126</ele><time>2016-08-03T15:06:11Z</time></trkpt><trkpt lat="42.392359" lon="2.111507"><ele>2602.008</ele><time>2016-08-03T15:06:35Z</time></trkpt><trkpt lat="42.392436" lon="2.111598"><ele>2605.338</ele><time>2016-08-03T15:06:56Z</time></trkpt><trkpt lat="42.392470" lon="2.111681"><ele>2609.281</ele><time>2016-08-03T15:07:21Z</time></trkpt><trkpt lat="42.392565" lon="2.111754"><ele>2612.540</ele><time>2016-08-03T15:07:47Z</time></trkpt><trkpt lat="42.392600" lon="2.111812"><ele>2616.467</ele><time>2016-08-03T15:08:29Z</time></trkpt><trkpt lat="42.392663" lon="2.111895"><ele>2618.833</ele><time>2016-08-03T15:08:47Z</time></trkpt><trkpt lat="42.392740" lon="2.111960"><ele>2622.619</ele><time>2016-08-03T15:09:06Z</time></trkpt><trkpt lat="42.392804" lon="2.112004"><ele>2625.567</ele><time>2016-08-03T15:09:28Z</time></trkpt><trkpt lat="42.392878" lon="2.112055"><ele>2628.946</ele><time>2016-08-03T15:09:50Z</time></trkpt><trkpt lat="42.392978" lon="2.112050"><ele>2631.826</ele><time>2016-08-03T15:10:12Z</time></trkpt><trkpt lat="42.393077" lon="2.112094"><ele>2634.247</ele><time>2016-08-03T15:10:35Z</time></trkpt><trkpt lat="42.393178" lon="2.112126"><ele>2637.511</ele><time>2016-08-03T15:10:58Z</time></trkpt><trkpt lat="42.393272" lon="2.112142"><ele>2641.408</ele><time>2016-08-03T15:11:22Z</time></trkpt><trkpt lat="42.393336" lon="2.112174"><ele>2645.223</ele><time>2016-08-03T15:11:45Z</time></trkpt><trkpt lat="42.393377" lon="2.112250"><ele>2648.656</ele><time>2016-08-03T15:12:14Z</time></trkpt><trkpt lat="42.393409" lon="2.112307"><ele>2653.425</ele><time>2016-08-03T15:13:04Z</time></trkpt><trkpt lat="42.393438" lon="2.112405"><ele>2658.232</ele><time>2016-08-03T15:13:27Z</time></trkpt><trkpt lat="42.393508" lon="2.112462"><ele>2662.588</ele><time>2016-08-03T15:13:50Z</time></trkpt><trkpt lat="42.393546" lon="2.112513"><ele>2665.924</ele><time>2016-08-03T15:14:16Z</time></trkpt><trkpt lat="42.393587" lon="2.112569"><ele>2669.752</ele><time>2016-08-03T15:14:37Z</time></trkpt><trkpt lat="42.393663" lon="2.112602"><ele>2674.061</ele><time>2016-08-03T15:15:05Z</time></trkpt><trkpt lat="42.393740" lon="2.112566"><ele>2676.549</ele><time>2016-08-03T15:15:29Z</time></trkpt><trkpt lat="42.393794" lon="2.112500"><ele>2677.402</ele><time>2016-08-03T15:15:50Z</time></trkpt><trkpt lat="42.393892" lon="2.112395"><ele>2678.422</ele><time>2016-08-03T15:16:10Z</time></trkpt><trkpt lat="42.393962" lon="2.112386"><ele>2681.708</ele><time>2016-08-03T15:16:28Z</time></trkpt><trkpt lat="42.394017" lon="2.112439"><ele>2684.125</ele><time>2016-08-03T15:16:49Z</time></trkpt><trkpt lat="42.394072" lon="2.112477"><ele>2688.028</ele><time>2016-08-03T15:17:16Z</time></trkpt><trkpt lat="42.394130" lon="2.112505"><ele>2691.467</ele><time>2016-08-03T15:17:42Z</time></trkpt><trkpt lat="42.394174" lon="2.112539"><ele>2695.784</ele><time>2016-08-03T15:18:11Z</time></trkpt><trkpt lat="42.394256" lon="2.112544"><ele>2699.090</ele><time>2016-08-03T15:18:35Z</time></trkpt><trkpt lat="42.394268" lon="2.112593"><ele>2703.416</ele><time>2016-08-03T15:19:06Z</time></trkpt><trkpt lat="42.394320" lon="2.112579"><ele>2706.714</ele><time>2016-08-03T15:19:28Z</time></trkpt><trkpt lat="42.394385" lon="2.112583"><ele>2709.643</ele><time>2016-08-03T15:19:54Z</time></trkpt><trkpt lat="42.394411" lon="2.112631"><ele>2713.011</ele><time>2016-08-03T15:20:48Z</time></trkpt><trkpt lat="42.394429" lon="2.112711"><ele>2715.921</ele><time>2016-08-03T15:21:09Z</time></trkpt><trkpt lat="42.394539" lon="2.112749"><ele>2721.203</ele><time>2016-08-03T15:21:31Z</time></trkpt><trkpt lat="42.394562" lon="2.112782"><ele>2726.008</ele><time>2016-08-03T15:22:01Z</time></trkpt><trkpt lat="42.394607" lon="2.112787"><ele>2729.362</ele><time>2016-08-03T15:22:22Z</time></trkpt><trkpt lat="42.394701" lon="2.112792"><ele>2733.275</ele><time>2016-08-03T15:22:43Z</time></trkpt><trkpt lat="42.394729" lon="2.112882"><ele>2736.114</ele><time>2016-08-03T15:23:01Z</time></trkpt><trkpt lat="42.394759" lon="2.112880"><ele>2734.121</ele><time>2016-08-03T15:24:05Z</time></trkpt><trkpt lat="42.394829" lon="2.112923"><ele>2734.667</ele><time>2016-08-03T15:24:45Z</time></trkpt><trkpt lat="42.394910" lon="2.112927"><ele>2734.153</ele><time>2016-08-03T15:25:14Z</time></trkpt><trkpt lat="42.394985" lon="2.112893"><ele>2735.131</ele><time>2016-08-03T15:25:38Z</time></trkpt><trkpt lat="42.394975" lon="2.112906"><ele>2736.530</ele><time>2016-08-03T15:27:28Z</time></trkpt><trkpt lat="42.394893" lon="2.112918"><ele>2736.579</ele><time>2016-08-03T15:28:00Z</time></trkpt><trkpt lat="42.394801" lon="2.112893"><ele>2736.505</ele><time>2016-08-03T15:28:13Z</time></trkpt><trkpt lat="42.394748" lon="2.112920"><ele>2738.525</ele><time>2016-08-03T15:29:14Z</time></trkpt><trkpt lat="42.394739" lon="2.113039"><ele>2740.908</ele><time>2016-08-03T15:29:33Z</time></trkpt><trkpt lat="42.394712" lon="2.113131"><ele>2743.718</ele><time>2016-08-03T15:29:54Z</time></trkpt><trkpt lat="42.394689" lon="2.113208"><ele>2747.631</ele><time>2016-08-03T15:30:12Z</time></trkpt><trkpt lat="42.394650" lon="2.113299"><ele>2751.090</ele><time>2016-08-03T15:30:32Z</time></trkpt><trkpt lat="42.394582" lon="2.113340"><ele>2753.467</ele><time>2016-08-03T15:30:49Z</time></trkpt><trkpt lat="42.394543" lon="2.113471"><ele>2755.333</ele><time>2016-08-03T15:31:08Z</time></trkpt><trkpt lat="42.394514" lon="2.113538"><ele>2758.299</ele><time>2016-08-03T15:31:24Z</time></trkpt><trkpt lat="42.394461" lon="2.113610"><ele>2760.647</ele><time>2016-08-03T15:31:45Z</time></trkpt><trkpt lat="42.394473" lon="2.113687"><ele>2763.086</ele><time>2016-08-03T15:32:22Z</time></trkpt><trkpt lat="42.394470" lon="2.113757"><ele>2765.447</ele><time>2016-08-03T15:32:36Z</time></trkpt><trkpt lat="42.394362" lon="2.113922"><ele>2767.329</ele><time>2016-08-03T15:32:52Z</time></trkpt><trkpt lat="42.394306" lon="2.114024"><ele>2769.721</ele><time>2016-08-03T15:33:29Z</time></trkpt><trkpt lat="42.394266" lon="2.114134"><ele>2773.108</ele><time>2016-08-03T15:33:46Z</time></trkpt><trkpt lat="42.394332" lon="2.114218"><ele>2775.935</ele><time>2016-08-03T15:34:05Z</time></trkpt><trkpt lat="42.394347" lon="2.114294"><ele>2779.348</ele><time>2016-08-03T15:34:33Z</time></trkpt><trkpt lat="42.394429" lon="2.114358"><ele>2780.877</ele><time>2016-08-03T15:34:47Z</time></trkpt><trkpt lat="42.394370" lon="2.114404"><ele>2784.124</ele><time>2016-08-03T15:35:02Z</time></trkpt><trkpt lat="42.394289" lon="2.114448"><ele>2788.010</ele><time>2016-08-03T15:35:18Z</time></trkpt><trkpt lat="42.394255" lon="2.114538"><ele>2789.976</ele><time>2016-08-03T15:35:35Z</time></trkpt><trkpt lat="42.394196" lon="2.114607"><ele>2792.814</ele><time>2016-08-03T15:35:56Z</time></trkpt><trkpt lat="42.394164" lon="2.114713"><ele>2794.223</ele><time>2016-08-03T15:36:12Z</time></trkpt><trkpt lat="42.394111" lon="2.114798"><ele>2795.712</ele><time>2016-08-03T15:36:25Z</time></trkpt><trkpt lat="42.394034" lon="2.114847"><ele>2797.632</ele><time>2016-08-03T15:36:40Z</time></trkpt><trkpt lat="42.393953" lon="2.114888"><ele>2800.505</ele><time>2016-08-03T15:36:59Z</time></trkpt><trkpt lat="42.393881" lon="2.114916"><ele>2800.508</ele><time>2016-08-03T15:37:24Z</time></trkpt><trkpt lat="42.393791" lon="2.114927"><ele>2800.572</ele><time>2016-08-03T15:37:35Z</time></trkpt><trkpt lat="42.393709" lon="2.114960"><ele>2798.595</ele><time>2016-08-03T15:37:50Z</time></trkpt><trkpt lat="42.393618" lon="2.114963"><ele>2797.154</ele><time>2016-08-03T15:38:02Z</time></trkpt><trkpt lat="42.393565" lon="2.114919"><ele>2796.641</ele><time>2016-08-03T15:38:44Z</time></trkpt><trkpt lat="42.393474" lon="2.114900"><ele>2795.287</ele><time>2016-08-03T15:38:55Z</time></trkpt><trkpt lat="42.393398" lon="2.114851"><ele>2794.733</ele><time>2016-08-03T15:39:08Z</time></trkpt><trkpt lat="42.393311" lon="2.114821"><ele>2793.351</ele><time>2016-08-03T15:39:21Z</time></trkpt><trkpt lat="42.393225" lon="2.114799"><ele>2792.350</ele><time>2016-08-03T15:39:35Z</time></trkpt><trkpt lat="42.393136" lon="2.114763"><ele>2792.389</ele><time>2016-08-03T15:39:48Z</time></trkpt><trkpt lat="42.393031" lon="2.114756"><ele>2791.306</ele><time>2016-08-03T15:40:02Z</time></trkpt><trkpt lat="42.392964" lon="2.114739"><ele>2790.826</ele><time>2016-08-03T15:40:12Z</time></trkpt><trkpt lat="42.392872" lon="2.114715"><ele>2790.408</ele><time>2016-08-03T15:40:25Z</time></trkpt><trkpt lat="42.392799" lon="2.114686"><ele>2789.429</ele><time>2016-08-03T15:40:37Z</time></trkpt><trkpt lat="42.392702" lon="2.114692"><ele>2789.422</ele><time>2016-08-03T15:41:00Z</time></trkpt><trkpt lat="42.392618" lon="2.114732"><ele>2788.451</ele><time>2016-08-03T15:41:14Z</time></trkpt><trkpt lat="42.392525" lon="2.114750"><ele>2786.528</ele><time>2016-08-03T15:41:25Z</time></trkpt><trkpt lat="42.392430" lon="2.114750"><ele>2787.544</ele><time>2016-08-03T15:41:40Z</time></trkpt><trkpt lat="42.392349" lon="2.114709"><ele>2786.040</ele><time>2016-08-03T15:41:48Z</time></trkpt><trkpt lat="42.392254" lon="2.114695"><ele>2785.678</ele><time>2016-08-03T15:41:57Z</time></trkpt><trkpt lat="42.392158" lon="2.114689"><ele>2784.187</ele><time>2016-08-03T15:42:05Z</time></trkpt><trkpt lat="42.392069" lon="2.114646"><ele>2782.288</ele><time>2016-08-03T15:42:13Z</time></trkpt><trkpt lat="42.391982" lon="2.114606"><ele>2781.724</ele><time>2016-08-03T15:42:21Z</time></trkpt><trkpt lat="42.391890" lon="2.114598"><ele>2781.226</ele><time>2016-08-03T15:42:30Z</time></trkpt><trkpt lat="42.391800" lon="2.114602"><ele>2780.308</ele><time>2016-08-03T15:42:38Z</time></trkpt><trkpt lat="42.391709" lon="2.114603"><ele>2779.869</ele><time>2016-08-03T15:42:47Z</time></trkpt><trkpt lat="42.391623" lon="2.114568"><ele>2779.342</ele><time>2016-08-03T15:42:57Z</time></trkpt><trkpt lat="42.391538" lon="2.114523"><ele>2778.441</ele><time>2016-08-03T15:43:06Z</time></trkpt><trkpt lat="42.391455" lon="2.114482"><ele>2777.948</ele><time>2016-08-03T15:43:14Z</time></trkpt><trkpt lat="42.391371" lon="2.114463"><ele>2777.914</ele><time>2016-08-03T15:43:23Z</time></trkpt><trkpt lat="42.391275" lon="2.114456"><ele>2780.310</ele><time>2016-08-03T15:43:33Z</time></trkpt><trkpt lat="42.391181" lon="2.114459"><ele>2783.298</ele><time>2016-08-03T15:43:43Z</time></trkpt><trkpt lat="42.391093" lon="2.114452"><ele>2784.697</ele><time>2016-08-03T15:43:52Z</time></trkpt><trkpt lat="42.391020" lon="2.114412"><ele>2781.751</ele><time>2016-08-03T15:44:06Z</time></trkpt><trkpt lat="42.390917" lon="2.114401"><ele>2783.201</ele><time>2016-08-03T15:44:26Z</time></trkpt><trkpt lat="42.390824" lon="2.114385"><ele>2783.611</ele><time>2016-08-03T15:44:34Z</time></trkpt><trkpt lat="42.390737" lon="2.114421"><ele>2782.708</ele><time>2016-08-03T15:44:44Z</time></trkpt><trkpt lat="42.390653" lon="2.114443"><ele>2783.626</ele><time>2016-08-03T15:44:52Z</time></trkpt><trkpt lat="42.390572" lon="2.114488"><ele>2784.679</ele><time>2016-08-03T15:45:01Z</time></trkpt><trkpt lat="42.390486" lon="2.114472"><ele>2784.168</ele><time>2016-08-03T15:45:11Z</time></trkpt><trkpt lat="42.390397" lon="2.114482"><ele>2781.225</ele><time>2016-08-03T15:45:21Z</time></trkpt><trkpt lat="42.390299" lon="2.114478"><ele>2779.361</ele><time>2016-08-03T15:45:30Z</time></trkpt><trkpt lat="42.390206" lon="2.114470"><ele>2777.917</ele><time>2016-08-03T15:45:39Z</time></trkpt><trkpt lat="42.390111" lon="2.114474"><ele>2777.435</ele><time>2016-08-03T15:45:48Z</time></trkpt><trkpt lat="42.390019" lon="2.114473"><ele>2775.914</ele><time>2016-08-03T15:45:57Z</time></trkpt><trkpt lat="42.389926" lon="2.114477"><ele>2774.597</ele><time>2016-08-03T15:46:08Z</time></trkpt><trkpt lat="42.389840" lon="2.114484"><ele>2773.523</ele><time>2016-08-03T15:46:19Z</time></trkpt><trkpt lat="42.389742" lon="2.114497"><ele>2772.625</ele><time>2016-08-03T15:46:30Z</time></trkpt><trkpt lat="42.389652" lon="2.114539"><ele>2772.608</ele><time>2016-08-03T15:46:40Z</time></trkpt><trkpt lat="42.389559" lon="2.114559"><ele>2770.730</ele><time>2016-08-03T15:46:50Z</time></trkpt><trkpt lat="42.389470" lon="2.114576"><ele>2769.273</ele><time>2016-08-03T15:47:02Z</time></trkpt><trkpt lat="42.389381" lon="2.114599"><ele>2767.352</ele><time>2016-08-03T15:47:12Z</time></trkpt><trkpt lat="42.389287" lon="2.114574"><ele>2767.349</ele><time>2016-08-03T15:47:22Z</time></trkpt><trkpt lat="42.389201" lon="2.114552"><ele>2766.855</ele><time>2016-08-03T15:47:33Z</time></trkpt><trkpt lat="42.389111" lon="2.114554"><ele>2763.951</ele><time>2016-08-03T15:47:45Z</time></trkpt><trkpt lat="42.389026" lon="2.114570"><ele>2765.929</ele><time>2016-08-03T15:48:38Z</time></trkpt><trkpt lat="42.388943" lon="2.114561"><ele>2766.348</ele><time>2016-08-03T15:48:53Z</time></trkpt><trkpt lat="42.388850" lon="2.114587"><ele>2764.496</ele><time>2016-08-03T15:49:03Z</time></trkpt><trkpt lat="42.388770" lon="2.114624"><ele>2763.031</ele><time>2016-08-03T15:49:22Z</time></trkpt><trkpt lat="42.388652" lon="2.114659"><ele>2763.924</ele><time>2016-08-03T15:49:33Z</time></trkpt><trkpt lat="42.388602" lon="2.114714"><ele>2763.508</ele><time>2016-08-03T15:49:43Z</time></trkpt><trkpt lat="42.388518" lon="2.114766"><ele>2764.420</ele><time>2016-08-03T15:49:53Z</time></trkpt><trkpt lat="42.388441" lon="2.114809"><ele>2765.473</ele><time>2016-08-03T15:50:03Z</time></trkpt><trkpt lat="42.388350" lon="2.114835"><ele>2767.862</ele><time>2016-08-03T15:50:17Z</time></trkpt><trkpt lat="42.388261" lon="2.114862"><ele>2770.289</ele><time>2016-08-03T15:50:34Z</time></trkpt><trkpt lat="42.388186" lon="2.114888"><ele>2773.125</ele><time>2016-08-03T15:50:52Z</time></trkpt><trkpt lat="42.388098" lon="2.114915"><ele>2775.051</ele><time>2016-08-03T15:51:10Z</time></trkpt><trkpt lat="42.388006" lon="2.114938"><ele>2776.929</ele><time>2016-08-03T15:51:24Z</time></trkpt><trkpt lat="42.387909" lon="2.114957"><ele>2778.478</ele><time>2016-08-03T15:51:37Z</time></trkpt><trkpt lat="42.387820" lon="2.114961"><ele>2779.354</ele><time>2016-08-03T15:51:50Z</time></trkpt><trkpt lat="42.387735" lon="2.114980"><ele>2781.756</ele><time>2016-08-03T15:52:04Z</time></trkpt><trkpt lat="42.387643" lon="2.114991"><ele>2783.611</ele><time>2016-08-03T15:52:19Z</time></trkpt><trkpt lat="42.387555" lon="2.114938"><ele>2783.608</ele><time>2016-08-03T15:52:30Z</time></trkpt><trkpt lat="42.387482" lon="2.114898"><ele>2783.286</ele><time>2016-08-03T15:52:52Z</time></trkpt><trkpt lat="42.387409" lon="2.114905"><ele>2786.039</ele><time>2016-08-03T15:53:09Z</time></trkpt><trkpt lat="42.387361" lon="2.114932"><ele>2788.428</ele><time>2016-08-03T15:53:31Z</time></trkpt><trkpt lat="42.387307" lon="2.114972"><ele>2791.375</ele><time>2016-08-03T15:53:50Z</time></trkpt><trkpt lat="42.387267" lon="2.115018"><ele>2793.741</ele><time>2016-08-03T15:54:09Z</time></trkpt><trkpt lat="42.387143" lon="2.115000"><ele>2795.727</ele><time>2016-08-03T15:54:23Z</time></trkpt><trkpt lat="42.387054" lon="2.115003"><ele>2797.655</ele><time>2016-08-03T15:54:40Z</time></trkpt><trkpt lat="42.386975" lon="2.115011"><ele>2799.574</ele><time>2016-08-03T15:54:55Z</time></trkpt><trkpt lat="42.386889" lon="2.115034"><ele>2801.944</ele><time>2016-08-03T15:55:10Z</time></trkpt><trkpt lat="42.386804" lon="2.115057"><ele>2804.305</ele><time>2016-08-03T15:55:27Z</time></trkpt><trkpt lat="42.386721" lon="2.115068"><ele>2806.215</ele><time>2016-08-03T15:55:50Z</time></trkpt><trkpt lat="42.386634" lon="2.115060"><ele>2808.208</ele><time>2016-08-03T15:56:04Z</time></trkpt><trkpt lat="42.386554" lon="2.115064"><ele>2810.135</ele><time>2016-08-03T15:56:19Z</time></trkpt><trkpt lat="42.386469" lon="2.115072"><ele>2810.148</ele><time>2016-08-03T15:56:35Z</time></trkpt><trkpt lat="42.386388" lon="2.115104"><ele>2813.437</ele><time>2016-08-03T15:57:05Z</time></trkpt><trkpt lat="42.386311" lon="2.115165"><ele>2813.414</ele><time>2016-08-03T15:57:16Z</time></trkpt><trkpt lat="42.386222" lon="2.115206"><ele>2815.460</ele><time>2016-08-03T15:57:34Z</time></trkpt><trkpt lat="42.386129" lon="2.115251"><ele>2817.376</ele><time>2016-08-03T15:57:47Z</time></trkpt><trkpt lat="42.386067" lon="2.115312"><ele>2817.324</ele><time>2016-08-03T15:57:59Z</time></trkpt><trkpt lat="42.385985" lon="2.115369"><ele>2818.263</ele><time>2016-08-03T15:58:10Z</time></trkpt><trkpt lat="42.385906" lon="2.115377"><ele>2819.242</ele><time>2016-08-03T15:58:23Z</time></trkpt><trkpt lat="42.385833" lon="2.115404"><ele>2821.122</ele><time>2016-08-03T15:58:35Z</time></trkpt><trkpt lat="42.385750" lon="2.115432"><ele>2822.114</ele><time>2016-08-03T15:58:47Z</time></trkpt><trkpt lat="42.385662" lon="2.115462"><ele>2823.108</ele><time>2016-08-03T15:58:59Z</time></trkpt><trkpt lat="42.385591" lon="2.115508"><ele>2824.555</ele><time>2016-08-03T15:59:14Z</time></trkpt><trkpt lat="42.385550" lon="2.115419"><ele>2825.578</ele><time>2016-08-03T15:59:30Z</time></trkpt><trkpt lat="42.385480" lon="2.115344"><ele>2828.857</ele><time>2016-08-03T15:59:48Z</time></trkpt><trkpt lat="42.385408" lon="2.115303"><ele>2831.744</ele><time>2016-08-03T16:00:06Z</time></trkpt><trkpt lat="42.385334" lon="2.115296"><ele>2834.670</ele><time>2016-08-03T16:00:25Z</time></trkpt><trkpt lat="42.385283" lon="2.115388"><ele>2836.536</ele><time>2016-08-03T16:00:59Z</time></trkpt><trkpt lat="42.385238" lon="2.115487"><ele>2838.914</ele><time>2016-08-03T16:01:14Z</time></trkpt><trkpt lat="42.385202" lon="2.115595"><ele>2842.313</ele><time>2016-08-03T16:01:32Z</time></trkpt><trkpt lat="42.385141" lon="2.115664"><ele>2844.768</ele><time>2016-08-03T16:01:50Z</time></trkpt><trkpt lat="42.385089" lon="2.115679"><ele>2846.142</ele><time>2016-08-03T16:02:11Z</time></trkpt><trkpt lat="42.385016" lon="2.115704"><ele>2848.026</ele><time>2016-08-03T16:02:32Z</time></trkpt><trkpt lat="42.384953" lon="2.115678"><ele>2848.508</ele><time>2016-08-03T16:02:51Z</time></trkpt><trkpt lat="42.384874" lon="2.115701"><ele>2852.427</ele><time>2016-08-03T16:03:13Z</time></trkpt><trkpt lat="42.384799" lon="2.115717"><ele>2852.920</ele><time>2016-08-03T16:03:36Z</time></trkpt><trkpt lat="42.384708" lon="2.115723"><ele>2856.779</ele><time>2016-08-03T16:04:05Z</time></trkpt><trkpt lat="42.384620" lon="2.115733"><ele>2858.646</ele><time>2016-08-03T16:04:19Z</time></trkpt><trkpt lat="42.384547" lon="2.115747"><ele>2861.072</ele><time>2016-08-03T16:04:37Z</time></trkpt><trkpt lat="42.384471" lon="2.115791"><ele>2865.468</ele><time>2016-08-03T16:04:52Z</time></trkpt><trkpt lat="42.384391" lon="2.115753"><ele>2867.856</ele><time>2016-08-03T16:05:09Z</time></trkpt><trkpt lat="42.384300" lon="2.115710"><ele>2869.215</ele><time>2016-08-03T16:05:25Z</time></trkpt><trkpt lat="42.384216" lon="2.115685"><ele>2869.715</ele><time>2016-08-03T16:05:42Z</time></trkpt><trkpt lat="42.384135" lon="2.115649"><ele>2871.665</ele><time>2016-08-03T16:05:55Z</time></trkpt><trkpt lat="42.384043" lon="2.115658"><ele>2875.911</ele><time>2016-08-03T16:06:14Z</time></trkpt><trkpt lat="42.383979" lon="2.115679"><ele>2878.308</ele><time>2016-08-03T16:06:37Z</time></trkpt><trkpt lat="42.383925" lon="2.115689"><ele>2880.732</ele><time>2016-08-03T16:06:57Z</time></trkpt><trkpt lat="42.383861" lon="2.115714"><ele>2879.895</ele><time>2016-08-03T16:07:15Z</time></trkpt><trkpt lat="42.383760" lon="2.115718"><ele>2881.794</ele><time>2016-08-03T16:07:30Z</time></trkpt><trkpt lat="42.383681" lon="2.115801"><ele>2884.621</ele><time>2016-08-03T16:07:47Z</time></trkpt><trkpt lat="42.383648" lon="2.115920"><ele>2887.997</ele><time>2016-08-03T16:08:03Z</time></trkpt><trkpt lat="42.383595" lon="2.116011"><ele>2890.383</ele><time>2016-08-03T16:08:16Z</time></trkpt><trkpt lat="42.383562" lon="2.116110"><ele>2892.391</ele><time>2016-08-03T16:08:30Z</time></trkpt><trkpt lat="42.383527" lon="2.116232"><ele>2893.270</ele><time>2016-08-03T16:08:43Z</time></trkpt><trkpt lat="42.383492" lon="2.116336"><ele>2894.741</ele><time>2016-08-03T16:08:54Z</time></trkpt><trkpt lat="42.383464" lon="2.116470"><ele>2897.681</ele><time>2016-08-03T16:09:07Z</time></trkpt><trkpt lat="42.383445" lon="2.116588"><ele>2900.009</ele><time>2016-08-03T16:09:21Z</time></trkpt><trkpt lat="42.383417" lon="2.116669"><ele>2901.908</ele><time>2016-08-03T16:09:37Z</time></trkpt><trkpt lat="42.383347" lon="2.116718"><ele>2904.395</ele><time>2016-08-03T16:09:54Z</time></trkpt><trkpt lat="42.383330" lon="2.116816"><ele>2905.228</ele><time>2016-08-03T16:10:31Z</time></trkpt><trkpt lat="42.383326" lon="2.116787"><ele>2905.717</ele><time>2016-08-03T16:11:58Z</time></trkpt><trkpt lat="42.383303" lon="2.116892"><ele>2905.794</ele><time>2016-08-03T16:13:02Z</time></trkpt><trkpt lat="42.383313" lon="2.116888"><ele>2906.230</ele><time>2016-08-03T16:13:41Z</time></trkpt><trkpt lat="42.383299" lon="2.116844"><ele>2908.636</ele><time>2016-08-03T16:15:45Z</time></trkpt><trkpt lat="42.383288" lon="2.116820"><ele>2909.114</ele><time>2016-08-03T16:17:16Z</time></trkpt><trkpt lat="42.383241" lon="2.116862"><ele>2907.283</ele><time>2016-08-03T16:18:25Z</time></trkpt><trkpt lat="42.383160" lon="2.116877"><ele>2904.896</ele><time>2016-08-03T16:18:42Z</time></trkpt><trkpt lat="42.383139" lon="2.116761"><ele>2902.431</ele><time>2016-08-03T16:19:02Z</time></trkpt><trkpt lat="42.383074" lon="2.116723"><ele>2901.924</ele><time>2016-08-03T16:19:17Z</time></trkpt><trkpt lat="42.383036" lon="2.116632"><ele>2900.408</ele><time>2016-08-03T16:19:31Z</time></trkpt><trkpt lat="42.383017" lon="2.116511"><ele>2898.010</ele><time>2016-08-03T16:19:45Z</time></trkpt><trkpt lat="42.382985" lon="2.116395"><ele>2896.663</ele><time>2016-08-03T16:19:55Z</time></trkpt><trkpt lat="42.382937" lon="2.116303"><ele>2893.782</ele><time>2016-08-03T16:20:18Z</time></trkpt><trkpt lat="42.382883" lon="2.116225"><ele>2891.379</ele><time>2016-08-03T16:20:31Z</time></trkpt><trkpt lat="42.382795" lon="2.116169"><ele>2888.925</ele><time>2016-08-03T16:20:41Z</time></trkpt><trkpt lat="42.382750" lon="2.116113"><ele>2886.561</ele><time>2016-08-03T16:20:50Z</time></trkpt><trkpt lat="42.382675" lon="2.116028"><ele>2886.089</ele><time>2016-08-03T16:21:00Z</time></trkpt><trkpt lat="42.382618" lon="2.115967"><ele>2883.658</ele><time>2016-08-03T16:21:09Z</time></trkpt><trkpt lat="42.382561" lon="2.115831"><ele>2881.713</ele><time>2016-08-03T16:21:18Z</time></trkpt><trkpt lat="42.382514" lon="2.115734"><ele>2880.743</ele><time>2016-08-03T16:21:31Z</time></trkpt><trkpt lat="42.382496" lon="2.115603"><ele>2879.807</ele><time>2016-08-03T16:21:44Z</time></trkpt><trkpt lat="42.382446" lon="2.115496"><ele>2879.808</ele><time>2016-08-03T16:21:56Z</time></trkpt><trkpt lat="42.382432" lon="2.115396"><ele>2878.882</ele><time>2016-08-03T16:22:08Z</time></trkpt><trkpt lat="42.382393" lon="2.115294"><ele>2877.465</ele><time>2016-08-03T16:22:19Z</time></trkpt><trkpt lat="42.382369" lon="2.115207"><ele>2875.494</ele><time>2016-08-03T16:22:34Z</time></trkpt><trkpt lat="42.382295" lon="2.115145"><ele>2873.561</ele><time>2016-08-03T16:22:59Z</time></trkpt><trkpt lat="42.382288" lon="2.115048"><ele>2869.757</ele><time>2016-08-03T16:23:18Z</time></trkpt><trkpt lat="42.382212" lon="2.115015"><ele>2866.843</ele><time>2016-08-03T16:23:35Z</time></trkpt><trkpt lat="42.382197" lon="2.114953"><ele>2862.921</ele><time>2016-08-03T16:24:14Z</time></trkpt><trkpt lat="42.382148" lon="2.114891"><ele>2857.720</ele><time>2016-08-03T16:24:33Z</time></trkpt><trkpt lat="42.382134" lon="2.114804"><ele>2856.229</ele><time>2016-08-03T16:24:54Z</time></trkpt><trkpt lat="42.382124" lon="2.114724"><ele>2852.400</ele><time>2016-08-03T16:25:19Z</time></trkpt><trkpt lat="42.382133" lon="2.114629"><ele>2849.020</ele><time>2016-08-03T16:25:41Z</time></trkpt><trkpt lat="42.382093" lon="2.114534"><ele>2846.108</ele><time>2016-08-03T16:26:22Z</time></trkpt><trkpt lat="42.382073" lon="2.114442"><ele>2843.743</ele><time>2016-08-03T16:26:45Z</time></trkpt><trkpt lat="42.382048" lon="2.114381"><ele>2842.366</ele><time>2016-08-03T16:27:06Z</time></trkpt><trkpt lat="42.382129" lon="2.114379"><ele>2839.995</ele><time>2016-08-03T16:27:25Z</time></trkpt><trkpt lat="42.382225" lon="2.114347"><ele>2837.052</ele><time>2016-08-03T16:27:43Z</time></trkpt><trkpt lat="42.382258" lon="2.114267"><ele>2833.618</ele><time>2016-08-03T16:28:05Z</time></trkpt><trkpt lat="42.382267" lon="2.114148"><ele>2831.214</ele><time>2016-08-03T16:28:23Z</time></trkpt><trkpt lat="42.382270" lon="2.114061"><ele>2828.852</ele><time>2016-08-03T16:28:40Z</time></trkpt><trkpt lat="42.382318" lon="2.114028"><ele>2825.061</ele><time>2016-08-03T16:29:05Z</time></trkpt><trkpt lat="42.382346" lon="2.113928"><ele>2822.684</ele><time>2016-08-03T16:29:27Z</time></trkpt><trkpt lat="42.382419" lon="2.113945"><ele>2821.107</ele><time>2016-08-03T16:29:50Z</time></trkpt><trkpt lat="42.382472" lon="2.113829"><ele>2817.317</ele><time>2016-08-03T16:30:06Z</time></trkpt><trkpt lat="42.382471" lon="2.113754"><ele>2815.408</ele><time>2016-08-03T16:30:47Z</time></trkpt><trkpt lat="42.382403" lon="2.113673"><ele>2813.419</ele><time>2016-08-03T16:31:06Z</time></trkpt><trkpt lat="42.382417" lon="2.113567"><ele>2812.562</ele><time>2016-08-03T16:31:19Z</time></trkpt><trkpt lat="42.382384" lon="2.113477"><ele>2810.621</ele><time>2016-08-03T16:31:36Z</time></trkpt><trkpt lat="42.382372" lon="2.113366"><ele>2808.248</ele><time>2016-08-03T16:31:53Z</time></trkpt><trkpt lat="42.382416" lon="2.113296"><ele>2805.364</ele><time>2016-08-03T16:32:48Z</time></trkpt><trkpt lat="42.382365" lon="2.113206"><ele>2803.310</ele><time>2016-08-03T16:33:19Z</time></trkpt><trkpt lat="42.382366" lon="2.113077"><ele>2802.448</ele><time>2016-08-03T16:33:33Z</time></trkpt><trkpt lat="42.382361" lon="2.112965"><ele>2799.557</ele><time>2016-08-03T16:33:44Z</time></trkpt><trkpt lat="42.382339" lon="2.112857"><ele>2798.141</ele><time>2016-08-03T16:33:57Z</time></trkpt><trkpt lat="42.382277" lon="2.112767"><ele>2796.681</ele><time>2016-08-03T16:34:09Z</time></trkpt><trkpt lat="42.382272" lon="2.112658"><ele>2793.709</ele><time>2016-08-03T16:34:22Z</time></trkpt><trkpt lat="42.382309" lon="2.112568"><ele>2790.808</ele><time>2016-08-03T16:34:38Z</time></trkpt><trkpt lat="42.382357" lon="2.112514"><ele>2787.515</ele><time>2016-08-03T16:34:56Z</time></trkpt><trkpt lat="42.382367" lon="2.112405"><ele>2784.668</ele><time>2016-08-03T16:35:11Z</time></trkpt><trkpt lat="42.382383" lon="2.112301"><ele>2781.257</ele><time>2016-08-03T16:35:31Z</time></trkpt><trkpt lat="42.382374" lon="2.112192"><ele>2778.874</ele><time>2016-08-03T16:35:50Z</time></trkpt><trkpt lat="42.382359" lon="2.112061"><ele>2774.590</ele><time>2016-08-03T16:36:05Z</time></trkpt><trkpt lat="42.382393" lon="2.111994"><ele>2773.196</ele><time>2016-08-03T16:36:17Z</time></trkpt><trkpt lat="42.382405" lon="2.111928"><ele>2769.784</ele><time>2016-08-03T16:36:31Z</time></trkpt><trkpt lat="42.382402" lon="2.111825"><ele>2767.313</ele><time>2016-08-03T16:36:42Z</time></trkpt><trkpt lat="42.382383" lon="2.111695"><ele>2764.446</ele><time>2016-08-03T16:36:53Z</time></trkpt><trkpt lat="42.382373" lon="2.111581"><ele>2763.088</ele><time>2016-08-03T16:37:09Z</time></trkpt><trkpt lat="42.382367" lon="2.111469"><ele>2759.616</ele><time>2016-08-03T16:37:23Z</time></trkpt><trkpt lat="42.382346" lon="2.111377"><ele>2757.208</ele><time>2016-08-03T16:37:34Z</time></trkpt><trkpt lat="42.382303" lon="2.111260"><ele>2753.435</ele><time>2016-08-03T16:37:43Z</time></trkpt><trkpt lat="42.382280" lon="2.111133"><ele>2751.968</ele><time>2016-08-03T16:37:54Z</time></trkpt><trkpt lat="42.382230" lon="2.111015"><ele>2750.587</ele><time>2016-08-03T16:38:09Z</time></trkpt><trkpt lat="42.382214" lon="2.110945"><ele>2747.644</ele><time>2016-08-03T16:38:23Z</time></trkpt><trkpt lat="42.382195" lon="2.110843"><ele>2745.720</ele><time>2016-08-03T16:38:40Z</time></trkpt><trkpt lat="42.382184" lon="2.110723"><ele>2742.816</ele><time>2016-08-03T16:38:58Z</time></trkpt><trkpt lat="42.382168" lon="2.110607"><ele>2739.954</ele><time>2016-08-03T16:39:14Z</time></trkpt><trkpt lat="42.382162" lon="2.110474"><ele>2738.963</ele><time>2016-08-03T16:39:24Z</time></trkpt><trkpt lat="42.382154" lon="2.110364"><ele>2737.529</ele><time>2016-08-03T16:39:38Z</time></trkpt><trkpt lat="42.382152" lon="2.110268"><ele>2734.600</ele><time>2016-08-03T16:39:50Z</time></trkpt><trkpt lat="42.382100" lon="2.110185"><ele>2733.220</ele><time>2016-08-03T16:40:00Z</time></trkpt><trkpt lat="42.382057" lon="2.110052"><ele>2732.708</ele><time>2016-08-03T16:40:09Z</time></trkpt><trkpt lat="42.382032" lon="2.109946"><ele>2727.923</ele><time>2016-08-03T16:40:23Z</time></trkpt><trkpt lat="42.382014" lon="2.109857"><ele>2726.046</ele><time>2016-08-03T16:40:36Z</time></trkpt><trkpt lat="42.381948" lon="2.109739"><ele>2723.665</ele><time>2016-08-03T16:40:51Z</time></trkpt><trkpt lat="42.381991" lon="2.109627"><ele>2721.232</ele><time>2016-08-03T16:41:07Z</time></trkpt><trkpt lat="42.381938" lon="2.109549"><ele>2716.868</ele><time>2016-08-03T16:41:22Z</time></trkpt><trkpt lat="42.381927" lon="2.109474"><ele>2714.414</ele><time>2016-08-03T16:41:36Z</time></trkpt><trkpt lat="42.381954" lon="2.109403"><ele>2712.552</ele><time>2016-08-03T16:41:50Z</time></trkpt><trkpt lat="42.381884" lon="2.109312"><ele>2710.191</ele><time>2016-08-03T16:42:03Z</time></trkpt><trkpt lat="42.381878" lon="2.109199"><ele>2707.219</ele><time>2016-08-03T16:42:17Z</time></trkpt><trkpt lat="42.381910" lon="2.109183"><ele>2705.809</ele><time>2016-08-03T16:44:03Z</time></trkpt><trkpt lat="42.381947" lon="2.109094"><ele>2701.919</ele><time>2016-08-03T16:44:38Z</time></trkpt><trkpt lat="42.381916" lon="2.109010"><ele>2700.508</ele><time>2016-08-03T16:44:52Z</time></trkpt><trkpt lat="42.381955" lon="2.108941"><ele>2696.682</ele><time>2016-08-03T16:45:05Z</time></trkpt><trkpt lat="42.381974" lon="2.108864"><ele>2694.275</ele><time>2016-08-03T16:45:30Z</time></trkpt><trkpt lat="42.382023" lon="2.108788"><ele>2691.424</ele><time>2016-08-03T16:45:44Z</time></trkpt><trkpt lat="42.382049" lon="2.108683"><ele>2688.091</ele><time>2016-08-03T16:45:57Z</time></trkpt><trkpt lat="42.382053" lon="2.108592"><ele>2685.187</ele><time>2016-08-03T16:46:10Z</time></trkpt><trkpt lat="42.382089" lon="2.108495"><ele>2682.773</ele><time>2016-08-03T16:46:25Z</time></trkpt><trkpt lat="42.382152" lon="2.108388"><ele>2680.331</ele><time>2016-08-03T16:46:36Z</time></trkpt><trkpt lat="42.382138" lon="2.108278"><ele>2676.950</ele><time>2016-08-03T16:46:46Z</time></trkpt><trkpt lat="42.382088" lon="2.108175"><ele>2673.171</ele><time>2016-08-03T16:46:57Z</time></trkpt><trkpt lat="42.382001" lon="2.108165"><ele>2670.741</ele><time>2016-08-03T16:47:10Z</time></trkpt><trkpt lat="42.381989" lon="2.108099"><ele>2667.315</ele><time>2016-08-03T16:47:47Z</time></trkpt><trkpt lat="42.381957" lon="2.108000"><ele>2665.408</ele><time>2016-08-03T16:48:02Z</time></trkpt><trkpt lat="42.381926" lon="2.107926"><ele>2662.068</ele><time>2016-08-03T16:48:13Z</time></trkpt><trkpt lat="42.381952" lon="2.107824"><ele>2658.211</ele><time>2016-08-03T16:48:24Z</time></trkpt><trkpt lat="42.381963" lon="2.107719"><ele>2654.890</ele><time>2016-08-03T16:48:38Z</time></trkpt><trkpt lat="42.381955" lon="2.107585"><ele>2652.487</ele><time>2016-08-03T16:49:41Z</time></trkpt><trkpt lat="42.381985" lon="2.107488"><ele>2648.663</ele><time>2016-08-03T16:50:09Z</time></trkpt><trkpt lat="42.382025" lon="2.107394"><ele>2647.159</ele><time>2016-08-03T16:50:38Z</time></trkpt><trkpt lat="42.382073" lon="2.107292"><ele>2646.297</ele><time>2016-08-03T16:50:49Z</time></trkpt><trkpt lat="42.382097" lon="2.107175"><ele>2644.736</ele><time>2016-08-03T16:51:02Z</time></trkpt><trkpt lat="42.382135" lon="2.107052"><ele>2643.347</ele><time>2016-08-03T16:51:12Z</time></trkpt><trkpt lat="42.382180" lon="2.106946"><ele>2641.429</ele><time>2016-08-03T16:51:23Z</time></trkpt><trkpt lat="42.382252" lon="2.106860"><ele>2639.421</ele><time>2016-08-03T16:51:33Z</time></trkpt><trkpt lat="42.382281" lon="2.106797"><ele>2637.508</ele><time>2016-08-03T16:52:13Z</time></trkpt><trkpt lat="42.382285" lon="2.106690"><ele>2634.645</ele><time>2016-08-03T16:52:27Z</time></trkpt><trkpt lat="42.382329" lon="2.106593"><ele>2631.318</ele><time>2016-08-03T16:52:39Z</time></trkpt><trkpt lat="42.382373" lon="2.106521"><ele>2630.377</ele><time>2016-08-03T16:53:06Z</time></trkpt><trkpt lat="42.382381" lon="2.106434"><ele>2626.564</ele><time>2016-08-03T16:53:27Z</time></trkpt><trkpt lat="42.382437" lon="2.106325"><ele>2624.120</ele><time>2016-08-03T16:53:40Z</time></trkpt><trkpt lat="42.382449" lon="2.106227"><ele>2620.726</ele><time>2016-08-03T16:53:51Z</time></trkpt><trkpt lat="42.382506" lon="2.106156"><ele>2617.864</ele><time>2016-08-03T16:54:07Z</time></trkpt><trkpt lat="42.382521" lon="2.106032"><ele>2614.013</ele><time>2016-08-03T16:54:20Z</time></trkpt><trkpt lat="42.382579" lon="2.105958"><ele>2611.181</ele><time>2016-08-03T16:54:33Z</time></trkpt><trkpt lat="42.382610" lon="2.105874"><ele>2609.661</ele><time>2016-08-03T16:54:47Z</time></trkpt><trkpt lat="42.382658" lon="2.105764"><ele>2605.817</ele><time>2016-08-03T16:55:01Z</time></trkpt><trkpt lat="42.382642" lon="2.105654"><ele>2602.908</ele><time>2016-08-03T16:55:14Z</time></trkpt><trkpt lat="42.382650" lon="2.105561"><ele>2600.029</ele><time>2016-08-03T16:55:29Z</time></trkpt><trkpt lat="42.382679" lon="2.105447"><ele>2597.162</ele><time>2016-08-03T16:55:43Z</time></trkpt><trkpt lat="42.382720" lon="2.105360"><ele>2594.311</ele><time>2016-08-03T16:56:44Z</time></trkpt><trkpt lat="42.382772" lon="2.105275"><ele>2591.428</ele><time>2016-08-03T16:57:00Z</time></trkpt><trkpt lat="42.382793" lon="2.105174"><ele>2588.064</ele><time>2016-08-03T16:57:15Z</time></trkpt><trkpt lat="42.382826" lon="2.105080"><ele>2584.250</ele><time>2016-08-03T16:57:40Z</time></trkpt><trkpt lat="42.382863" lon="2.104994"><ele>2581.848</ele><time>2016-08-03T16:57:52Z</time></trkpt><trkpt lat="42.382905" lon="2.104906"><ele>2580.817</ele><time>2016-08-03T16:58:03Z</time></trkpt><trkpt lat="42.382927" lon="2.104781"><ele>2578.432</ele><time>2016-08-03T16:58:14Z</time></trkpt><trkpt lat="42.383004" lon="2.104726"><ele>2575.592</ele><time>2016-08-03T16:58:26Z</time></trkpt><trkpt lat="42.383069" lon="2.104660"><ele>2572.611</ele><time>2016-08-03T16:59:01Z</time></trkpt><trkpt lat="42.383130" lon="2.104597"><ele>2572.608</ele><time>2016-08-03T16:59:25Z</time></trkpt><trkpt lat="42.383184" lon="2.104510"><ele>2569.784</ele><time>2016-08-03T16:59:36Z</time></trkpt><trkpt lat="42.383257" lon="2.104441"><ele>2566.997</ele><time>2016-08-03T17:00:04Z</time></trkpt><trkpt lat="42.383215" lon="2.104340"><ele>2564.556</ele><time>2016-08-03T17:00:17Z</time></trkpt><trkpt lat="42.383195" lon="2.104229"><ele>2561.623</ele><time>2016-08-03T17:00:32Z</time></trkpt><trkpt lat="42.383241" lon="2.104152"><ele>2559.229</ele><time>2016-08-03T17:00:45Z</time></trkpt><trkpt lat="42.383275" lon="2.104072"><ele>2555.325</ele><time>2016-08-03T17:01:02Z</time></trkpt><trkpt lat="42.383302" lon="2.104006"><ele>2552.453</ele><time>2016-08-03T17:01:19Z</time></trkpt><trkpt lat="42.383270" lon="2.103901"><ele>2548.642</ele><time>2016-08-03T17:01:36Z</time></trkpt><trkpt lat="42.383235" lon="2.103825"><ele>2545.261</ele><time>2016-08-03T17:02:03Z</time></trkpt><trkpt lat="42.383272" lon="2.103763"><ele>2540.421</ele><time>2016-08-03T17:02:48Z</time></trkpt><trkpt lat="42.383270" lon="2.103668"><ele>2536.613</ele><time>2016-08-03T17:03:28Z</time></trkpt><trkpt lat="42.383247" lon="2.103580"><ele>2532.308</ele><time>2016-08-03T17:03:58Z</time></trkpt><trkpt lat="42.383218" lon="2.103482"><ele>2528.417</ele><time>2016-08-03T17:04:20Z</time></trkpt><trkpt lat="42.383233" lon="2.103396"><ele>2524.150</ele><time>2016-08-03T17:04:45Z</time></trkpt><trkpt lat="42.383200" lon="2.103285"><ele>2520.299</ele><time>2016-08-03T17:05:08Z</time></trkpt><trkpt lat="42.383195" lon="2.103173"><ele>2516.986</ele><time>2016-08-03T17:05:27Z</time></trkpt><trkpt lat="42.383206" lon="2.103088"><ele>2515.052</ele><time>2016-08-03T17:06:44Z</time></trkpt><trkpt lat="42.383265" lon="2.103035"><ele>2511.178</ele><time>2016-08-03T17:07:15Z</time></trkpt><trkpt lat="42.383325" lon="2.103000"><ele>2507.756</ele><time>2016-08-03T17:08:00Z</time></trkpt><trkpt lat="42.383308" lon="2.102886"><ele>2504.955</ele><time>2016-08-03T17:08:17Z</time></trkpt><trkpt lat="42.383349" lon="2.102816"><ele>2501.566</ele><time>2016-08-03T17:08:32Z</time></trkpt><trkpt lat="42.383389" lon="2.102737"><ele>2498.629</ele><time>2016-08-03T17:08:49Z</time></trkpt><trkpt lat="42.383398" lon="2.102635"><ele>2495.721</ele><time>2016-08-03T17:09:04Z</time></trkpt><trkpt lat="42.383391" lon="2.102528"><ele>2493.308</ele><time>2016-08-03T17:09:17Z</time></trkpt><trkpt lat="42.383393" lon="2.102401"><ele>2490.417</ele><time>2016-08-03T17:09:28Z</time></trkpt><trkpt lat="42.383374" lon="2.102277"><ele>2487.130</ele><time>2016-08-03T17:09:42Z</time></trkpt><trkpt lat="42.383383" lon="2.102162"><ele>2484.299</ele><time>2016-08-03T17:09:56Z</time></trkpt><trkpt lat="42.383422" lon="2.102059"><ele>2481.386</ele><time>2016-08-03T17:10:12Z</time></trkpt><trkpt lat="42.383441" lon="2.101948"><ele>2477.012</ele><time>2016-08-03T17:10:32Z</time></trkpt><trkpt lat="42.383464" lon="2.101843"><ele>2472.778</ele><time>2016-08-03T17:10:48Z</time></trkpt><trkpt lat="42.383474" lon="2.101721"><ele>2469.816</ele><time>2016-08-03T17:11:04Z</time></trkpt><trkpt lat="42.383471" lon="2.101646"><ele>2467.845</ele><time>2016-08-03T17:11:58Z</time></trkpt><trkpt lat="42.383479" lon="2.101570"><ele>2465.094</ele><time>2016-08-03T17:12:27Z</time></trkpt><trkpt lat="42.383463" lon="2.101443"><ele>2460.657</ele><time>2016-08-03T17:13:00Z</time></trkpt><trkpt lat="42.383457" lon="2.101356"><ele>2458.222</ele><time>2016-08-03T17:13:27Z</time></trkpt><trkpt lat="42.383447" lon="2.101251"><ele>2454.408</ele><time>2016-08-03T17:13:44Z</time></trkpt><trkpt lat="42.383481" lon="2.101178"><ele>2449.680</ele><time>2016-08-03T17:14:01Z</time></trkpt><trkpt lat="42.383467" lon="2.101072"><ele>2448.623</ele><time>2016-08-03T17:14:32Z</time></trkpt><trkpt lat="42.383470" lon="2.100950"><ele>2445.742</ele><time>2016-08-03T17:14:48Z</time></trkpt><trkpt lat="42.383487" lon="2.100818"><ele>2442.969</ele><time>2016-08-03T17:15:02Z</time></trkpt><trkpt lat="42.383507" lon="2.100705"><ele>2439.575</ele><time>2016-08-03T17:15:15Z</time></trkpt><trkpt lat="42.383530" lon="2.100592"><ele>2435.691</ele><time>2016-08-03T17:15:31Z</time></trkpt><trkpt lat="42.383575" lon="2.100489"><ele>2432.889</ele><time>2016-08-03T17:15:45Z</time></trkpt><trkpt lat="42.383632" lon="2.100390"><ele>2430.438</ele><time>2016-08-03T17:15:58Z</time></trkpt><trkpt lat="42.383598" lon="2.100264"><ele>2428.056</ele><time>2016-08-03T17:16:15Z</time></trkpt><trkpt lat="42.383526" lon="2.100208"><ele>2424.659</ele><time>2016-08-03T17:16:30Z</time></trkpt><trkpt lat="42.383558" lon="2.100143"><ele>2420.314</ele><time>2016-08-03T17:16:56Z</time></trkpt><trkpt lat="42.383615" lon="2.100116"><ele>2416.408</ele><time>2016-08-03T17:17:18Z</time></trkpt><trkpt lat="42.383657" lon="2.100092"><ele>2413.196</ele><time>2016-08-03T17:18:28Z</time></trkpt><trkpt lat="42.383619" lon="2.100009"><ele>2409.739</ele><time>2016-08-03T17:18:49Z</time></trkpt><trkpt lat="42.383575" lon="2.099921"><ele>2404.488</ele><time>2016-08-03T17:19:12Z</time></trkpt><trkpt lat="42.383530" lon="2.099849"><ele>2402.095</ele><time>2016-08-03T17:19:34Z</time></trkpt><trkpt lat="42.383484" lon="2.099773"><ele>2398.281</ele><time>2016-08-03T17:20:19Z</time></trkpt><trkpt lat="42.383445" lon="2.099697"><ele>2394.817</ele><time>2016-08-03T17:20:41Z</time></trkpt><trkpt lat="42.383406" lon="2.099603"><ele>2390.545</ele><time>2016-08-03T17:20:56Z</time></trkpt><trkpt lat="42.383336" lon="2.099522"><ele>2387.644</ele><time>2016-08-03T17:21:11Z</time></trkpt><trkpt lat="42.383311" lon="2.099446"><ele>2384.761</ele><time>2016-08-03T17:21:29Z</time></trkpt><trkpt lat="42.383309" lon="2.099379"><ele>2381.321</ele><time>2016-08-03T17:21:46Z</time></trkpt><trkpt lat="42.383338" lon="2.099297"><ele>2378.013</ele><time>2016-08-03T17:22:06Z</time></trkpt><trkpt lat="42.383329" lon="2.099216"><ele>2375.108</ele><time>2016-08-03T17:22:27Z</time></trkpt><trkpt lat="42.383306" lon="2.099122"><ele>2371.227</ele><time>2016-08-03T17:22:44Z</time></trkpt><trkpt lat="42.383368" lon="2.099073"><ele>2368.470</ele><time>2016-08-03T17:23:01Z</time></trkpt><trkpt lat="42.383392" lon="2.098981"><ele>2365.519</ele><time>2016-08-03T17:23:23Z</time></trkpt><trkpt lat="42.383395" lon="2.098897"><ele>2361.626</ele><time>2016-08-03T17:23:46Z</time></trkpt><trkpt lat="42.383425" lon="2.098857"><ele>2358.392</ele><time>2016-08-03T17:24:12Z</time></trkpt><trkpt lat="42.383387" lon="2.098758"><ele>2354.488</ele><time>2016-08-03T17:24:41Z</time></trkpt><trkpt lat="42.383424" lon="2.098686"><ele>2350.616</ele><time>2016-08-03T17:25:04Z</time></trkpt><trkpt lat="42.383414" lon="2.098583"><ele>2346.765</ele><time>2016-08-03T17:25:29Z</time></trkpt><trkpt lat="42.383423" lon="2.098478"><ele>2345.328</ele><time>2016-08-03T17:25:45Z</time></trkpt><trkpt lat="42.383452" lon="2.098400"><ele>2343.889</ele><time>2016-08-03T17:25:59Z</time></trkpt><trkpt lat="42.383505" lon="2.098336"><ele>2340.517</ele><time>2016-08-03T17:26:16Z</time></trkpt><trkpt lat="42.383441" lon="2.098214"><ele>2338.508</ele><time>2016-08-03T17:26:31Z</time></trkpt><trkpt lat="42.383480" lon="2.098119"><ele>2336.673</ele><time>2016-08-03T17:26:47Z</time></trkpt><trkpt lat="42.383479" lon="2.097997"><ele>2334.766</ele><time>2016-08-03T17:27:07Z</time></trkpt><trkpt lat="42.383524" lon="2.097920"><ele>2332.815</ele><time>2016-08-03T17:27:25Z</time></trkpt><trkpt lat="42.383561" lon="2.097891"><ele>2328.912</ele><time>2016-08-03T17:27:53Z</time></trkpt><trkpt lat="42.383589" lon="2.097825"><ele>2326.138</ele><time>2016-08-03T17:28:30Z</time></trkpt><trkpt lat="42.383661" lon="2.097805"><ele>2322.284</ele><time>2016-08-03T17:28:57Z</time></trkpt><trkpt lat="42.383646" lon="2.097684"><ele>2318.832</ele><time>2016-08-03T17:29:25Z</time></trkpt><trkpt lat="42.383636" lon="2.097598"><ele>2315.061</ele><time>2016-08-03T17:29:46Z</time></trkpt><trkpt lat="42.383601" lon="2.097497"><ele>2311.255</ele><time>2016-08-03T17:30:12Z</time></trkpt><trkpt lat="42.383586" lon="2.097401"><ele>2307.307</ele><time>2016-08-03T17:30:38Z</time></trkpt><trkpt lat="42.383635" lon="2.097321"><ele>2303.917</ele><time>2016-08-03T17:30:56Z</time></trkpt><trkpt lat="42.383706" lon="2.097297"><ele>2299.608</ele><time>2016-08-03T17:31:20Z</time></trkpt><trkpt lat="42.383751" lon="2.097262"><ele>2295.856</ele><time>2016-08-03T17:31:42Z</time></trkpt><trkpt lat="42.383808" lon="2.097263"><ele>2292.949</ele><time>2016-08-03T17:32:02Z</time></trkpt><trkpt lat="42.383856" lon="2.097245"><ele>2290.048</ele><time>2016-08-03T17:32:24Z</time></trkpt><trkpt lat="42.383891" lon="2.097190"><ele>2286.275</ele><time>2016-08-03T17:32:47Z</time></trkpt><trkpt lat="42.383927" lon="2.097134"><ele>2282.861</ele><time>2016-08-03T17:33:06Z</time></trkpt><trkpt lat="42.383945" lon="2.097034"><ele>2279.967</ele><time>2016-08-03T17:33:28Z</time></trkpt><trkpt lat="42.384014" lon="2.097012"><ele>2276.555</ele><time>2016-08-03T17:33:48Z</time></trkpt><trkpt lat="42.384009" lon="2.096937"><ele>2273.274</ele><time>2016-08-03T17:34:36Z</time></trkpt><trkpt lat="42.384079" lon="2.096887"><ele>2270.394</ele><time>2016-08-03T17:34:57Z</time></trkpt><trkpt lat="42.384140" lon="2.096863"><ele>2266.957</ele><time>2016-08-03T17:35:20Z</time></trkpt><trkpt lat="42.384146" lon="2.096751"><ele>2263.622</ele><time>2016-08-03T17:35:40Z</time></trkpt><trkpt lat="42.384177" lon="2.096702"><ele>2262.108</ele><time>2016-08-03T17:36:01Z</time></trkpt><trkpt lat="42.384210" lon="2.096627"><ele>2258.830</ele><time>2016-08-03T17:36:27Z</time></trkpt><trkpt lat="42.384219" lon="2.096509"><ele>2254.983</ele><time>2016-08-03T17:36:47Z</time></trkpt><trkpt lat="42.384289" lon="2.096496"><ele>2251.562</ele><time>2016-08-03T17:37:08Z</time></trkpt><trkpt lat="42.384344" lon="2.096420"><ele>2247.789</ele><time>2016-08-03T17:37:26Z</time></trkpt><trkpt lat="42.384384" lon="2.096352"><ele>2244.875</ele><time>2016-08-03T17:37:48Z</time></trkpt><trkpt lat="42.384420" lon="2.096271"><ele>2241.931</ele><time>2016-08-03T17:38:08Z</time></trkpt><trkpt lat="42.384471" lon="2.096186"><ele>2239.189</ele><time>2016-08-03T17:38:26Z</time></trkpt><trkpt lat="42.384462" lon="2.096045"><ele>2237.148</ele><time>2016-08-03T17:38:43Z</time></trkpt><trkpt lat="42.384497" lon="2.095965"><ele>2234.755</ele><time>2016-08-03T17:38:57Z</time></trkpt><trkpt lat="42.384522" lon="2.095863"><ele>2231.407</ele><time>2016-08-03T17:39:13Z</time></trkpt><trkpt lat="42.384581" lon="2.095776"><ele>2229.017</ele><time>2016-08-03T17:39:44Z</time></trkpt><trkpt lat="42.384624" lon="2.095832"><ele>2228.008</ele><time>2016-08-03T17:41:08Z</time></trkpt><trkpt lat="42.384723" lon="2.095883"><ele>2226.696</ele><time>2016-08-03T17:41:19Z</time></trkpt><trkpt lat="42.384747" lon="2.095980"><ele>2225.619</ele><time>2016-08-03T17:41:29Z</time></trkpt><trkpt lat="42.384791" lon="2.096086"><ele>2223.738</ele><time>2016-08-03T17:41:44Z</time></trkpt><trkpt lat="42.384886" lon="2.096152"><ele>2222.255</ele><time>2016-08-03T17:42:06Z</time></trkpt><trkpt lat="42.384955" lon="2.096131"><ele>2219.871</ele><time>2016-08-03T17:42:20Z</time></trkpt><trkpt lat="42.385001" lon="2.096034"><ele>2216.527</ele><time>2016-08-03T17:42:45Z</time></trkpt><trkpt lat="42.385062" lon="2.095955"><ele>2214.545</ele><time>2016-08-03T17:43:09Z</time></trkpt><trkpt lat="42.385134" lon="2.095886"><ele>2212.184</ele><time>2016-08-03T17:43:23Z</time></trkpt><trkpt lat="42.385175" lon="2.095773"><ele>2209.387</ele><time>2016-08-03T17:43:36Z</time></trkpt><trkpt lat="42.385174" lon="2.095647"><ele>2208.342</ele><time>2016-08-03T17:43:48Z</time></trkpt><trkpt lat="42.385179" lon="2.095527"><ele>2205.926</ele><time>2016-08-03T17:43:59Z</time></trkpt><trkpt lat="42.385187" lon="2.095408"><ele>2203.508</ele><time>2016-08-03T17:44:12Z</time></trkpt><trkpt lat="42.385228" lon="2.095324"><ele>2201.159</ele><time>2016-08-03T17:44:28Z</time></trkpt><trkpt lat="42.385250" lon="2.095220"><ele>2199.242</ele><time>2016-08-03T17:44:44Z</time></trkpt><trkpt lat="42.385277" lon="2.095089"><ele>2196.351</ele><time>2016-08-03T17:45:04Z</time></trkpt><trkpt lat="42.385294" lon="2.094987"><ele>2193.458</ele><time>2016-08-03T17:45:20Z</time></trkpt><trkpt lat="42.385340" lon="2.094902"><ele>2190.014</ele><time>2016-08-03T17:46:07Z</time></trkpt><trkpt lat="42.385344" lon="2.094777"><ele>2189.510</ele><time>2016-08-03T17:46:34Z</time></trkpt><trkpt lat="42.385341" lon="2.094644"><ele>2187.638</ele><time>2016-08-03T17:46:46Z</time></trkpt><trkpt lat="42.385354" lon="2.094572"><ele>2187.117</ele><time>2016-08-03T17:47:22Z</time></trkpt><trkpt lat="42.385354" lon="2.094481"><ele>2184.783</ele><time>2016-08-03T17:47:47Z</time></trkpt><trkpt lat="42.385396" lon="2.094368"><ele>2182.825</ele><time>2016-08-03T17:47:59Z</time></trkpt><trkpt lat="42.385425" lon="2.094257"><ele>2180.417</ele><time>2016-08-03T17:48:13Z</time></trkpt><trkpt lat="42.385452" lon="2.094150"><ele>2178.008</ele><time>2016-08-03T17:48:30Z</time></trkpt><trkpt lat="42.385442" lon="2.094009"><ele>2176.619</ele><time>2016-08-03T17:48:42Z</time></trkpt><trkpt lat="42.385444" lon="2.093894"><ele>2174.682</ele><time>2016-08-03T17:48:55Z</time></trkpt><trkpt lat="42.385434" lon="2.093774"><ele>2173.251</ele><time>2016-08-03T17:49:08Z</time></trkpt><trkpt lat="42.385458" lon="2.093655"><ele>2171.348</ele><time>2016-08-03T17:49:19Z</time></trkpt><trkpt lat="42.385481" lon="2.093550"><ele>2168.444</ele><time>2016-08-03T17:49:37Z</time></trkpt><trkpt lat="42.385498" lon="2.093438"><ele>2165.560</ele><time>2016-08-03T17:49:54Z</time></trkpt><trkpt lat="42.385515" lon="2.093313"><ele>2164.138</ele><time>2016-08-03T17:50:12Z</time></trkpt><trkpt lat="42.385565" lon="2.093206"><ele>2161.247</ele><time>2016-08-03T17:50:25Z</time></trkpt><trkpt lat="42.385604" lon="2.093095"><ele>2159.773</ele><time>2016-08-03T17:50:38Z</time></trkpt><trkpt lat="42.385640" lon="2.092975"><ele>2157.885</ele><time>2016-08-03T17:50:49Z</time></trkpt><trkpt lat="42.385689" lon="2.092869"><ele>2155.413</ele><time>2016-08-03T17:51:00Z</time></trkpt><trkpt lat="42.385734" lon="2.092761"><ele>2154.008</ele><time>2016-08-03T17:51:11Z</time></trkpt><trkpt lat="42.385787" lon="2.092666"><ele>2152.168</ele><time>2016-08-03T17:51:25Z</time></trkpt><trkpt lat="42.385852" lon="2.092576"><ele>2148.261</ele><time>2016-08-03T17:51:41Z</time></trkpt><trkpt lat="42.385929" lon="2.092498"><ele>2147.270</ele><time>2016-08-03T17:51:54Z</time></trkpt><trkpt lat="42.385984" lon="2.092401"><ele>2144.417</ele><time>2016-08-03T17:52:08Z</time></trkpt><trkpt lat="42.386045" lon="2.092321"><ele>2142.413</ele><time>2016-08-03T17:52:23Z</time></trkpt><trkpt lat="42.386100" lon="2.092224"><ele>2140.069</ele><time>2016-08-03T17:52:50Z</time></trkpt><trkpt lat="42.386172" lon="2.092147"><ele>2138.127</ele><time>2016-08-03T17:53:02Z</time></trkpt><trkpt lat="42.386225" lon="2.092045"><ele>2136.266</ele><time>2016-08-03T17:53:13Z</time></trkpt><trkpt lat="42.386283" lon="2.091946"><ele>2135.263</ele><time>2016-08-03T17:53:23Z</time></trkpt><trkpt lat="42.386348" lon="2.091852"><ele>2134.344</ele><time>2016-08-03T17:53:34Z</time></trkpt><trkpt lat="42.386402" lon="2.091757"><ele>2132.818</ele><time>2016-08-03T17:53:45Z</time></trkpt><trkpt lat="42.386459" lon="2.091678"><ele>2130.908</ele><time>2016-08-03T17:53:55Z</time></trkpt><trkpt lat="42.386526" lon="2.091582"><ele>2129.067</ele><time>2016-08-03T17:54:05Z</time></trkpt><trkpt lat="42.386596" lon="2.091485"><ele>2127.510</ele><time>2016-08-03T17:54:14Z</time></trkpt><trkpt lat="42.386636" lon="2.091388"><ele>2126.629</ele><time>2016-08-03T17:54:27Z</time></trkpt><trkpt lat="42.386699" lon="2.091289"><ele>2125.186</ele><time>2016-08-03T17:54:39Z</time></trkpt><trkpt lat="42.386765" lon="2.091190"><ele>2123.232</ele><time>2016-08-03T17:54:50Z</time></trkpt><trkpt lat="42.386830" lon="2.091097"><ele>2121.828</ele><time>2016-08-03T17:55:07Z</time></trkpt><trkpt lat="42.386884" lon="2.091007"><ele>2120.326</ele><time>2016-08-03T17:55:17Z</time></trkpt><trkpt lat="42.386965" lon="2.090921"><ele>2117.945</ele><time>2016-08-03T17:55:28Z</time></trkpt><trkpt lat="42.387026" lon="2.090832"><ele>2117.458</ele><time>2016-08-03T17:55:40Z</time></trkpt><trkpt lat="42.387101" lon="2.090757"><ele>2114.652</ele><time>2016-08-03T17:55:49Z</time></trkpt><trkpt lat="42.387170" lon="2.090671"><ele>2112.617</ele><time>2016-08-03T17:55:59Z</time></trkpt><trkpt lat="42.387218" lon="2.090560"><ele>2110.708</ele><time>2016-08-03T17:56:09Z</time></trkpt><trkpt lat="42.387249" lon="2.090447"><ele>2109.826</ele><time>2016-08-03T17:56:22Z</time></trkpt><trkpt lat="42.387303" lon="2.090350"><ele>2108.359</ele><time>2016-08-03T17:56:42Z</time></trkpt><trkpt lat="42.387326" lon="2.090250"><ele>2107.428</ele><time>2016-08-03T17:56:54Z</time></trkpt><trkpt lat="42.387367" lon="2.090138"><ele>2105.485</ele><time>2016-08-03T17:57:07Z</time></trkpt><trkpt lat="42.387415" lon="2.090035"><ele>2104.071</ele><time>2016-08-03T17:57:20Z</time></trkpt><trkpt lat="42.387463" lon="2.089931"><ele>2102.587</ele><time>2016-08-03T17:57:32Z</time></trkpt><trkpt lat="42.387513" lon="2.089819"><ele>2101.115</ele><time>2016-08-03T17:57:44Z</time></trkpt><trkpt lat="42.387573" lon="2.089723"><ele>2099.734</ele><time>2016-08-03T17:57:55Z</time></trkpt><trkpt lat="42.387632" lon="2.089630"><ele>2098.276</ele><time>2016-08-03T17:58:06Z</time></trkpt><trkpt lat="42.387678" lon="2.089508"><ele>2096.890</ele><time>2016-08-03T17:58:17Z</time></trkpt><trkpt lat="42.387748" lon="2.089418"><ele>2093.919</ele><time>2016-08-03T17:58:28Z</time></trkpt><trkpt lat="42.387806" lon="2.089325"><ele>2092.508</ele><time>2016-08-03T17:58:39Z</time></trkpt><trkpt lat="42.387869" lon="2.089213"><ele>2091.058</ele><time>2016-08-03T17:58:49Z</time></trkpt><trkpt lat="42.387924" lon="2.089113"><ele>2090.591</ele><time>2016-08-03T17:58:58Z</time></trkpt><trkpt lat="42.387984" lon="2.089016"><ele>2090.020</ele><time>2016-08-03T17:59:13Z</time></trkpt><trkpt lat="42.388050" lon="2.088917"><ele>2088.627</ele><time>2016-08-03T17:59:22Z</time></trkpt><trkpt lat="42.388113" lon="2.088829"><ele>2088.113</ele><time>2016-08-03T17:59:30Z</time></trkpt><trkpt lat="42.388182" lon="2.088743"><ele>2086.769</ele><time>2016-08-03T17:59:38Z</time></trkpt><trkpt lat="42.388252" lon="2.088638"><ele>2085.777</ele><time>2016-08-03T17:59:47Z</time></trkpt><trkpt lat="42.388317" lon="2.088538"><ele>2083.846</ele><time>2016-08-03T17:59:56Z</time></trkpt><trkpt lat="42.388376" lon="2.088435"><ele>2083.823</ele><time>2016-08-03T18:00:05Z</time></trkpt><trkpt lat="42.388438" lon="2.088338"><ele>2082.483</ele><time>2016-08-03T18:00:13Z</time></trkpt><trkpt lat="42.388500" lon="2.088246"><ele>2081.911</ele><time>2016-08-03T18:00:21Z</time></trkpt><trkpt lat="42.388573" lon="2.088154"><ele>2080.408</ele><time>2016-08-03T18:00:29Z</time></trkpt><trkpt lat="42.388631" lon="2.088056"><ele>2079.063</ele><time>2016-08-03T18:00:37Z</time></trkpt><trkpt lat="42.388695" lon="2.087965"><ele>2078.536</ele><time>2016-08-03T18:00:45Z</time></trkpt><trkpt lat="42.388761" lon="2.087882"><ele>2078.035</ele><time>2016-08-03T18:00:53Z</time></trkpt><trkpt lat="42.388828" lon="2.087788"><ele>2077.152</ele><time>2016-08-03T18:01:02Z</time></trkpt><trkpt lat="42.388897" lon="2.087696"><ele>2076.178</ele><time>2016-08-03T18:01:11Z</time></trkpt><trkpt lat="42.388956" lon="2.087601"><ele>2075.184</ele><time>2016-08-03T18:01:19Z</time></trkpt><trkpt lat="42.389016" lon="2.087512"><ele>2074.782</ele><time>2016-08-03T18:01:27Z</time></trkpt><trkpt lat="42.389083" lon="2.087423"><ele>2074.721</ele><time>2016-08-03T18:01:35Z</time></trkpt><trkpt lat="42.389151" lon="2.087322"><ele>2073.267</ele><time>2016-08-03T18:01:44Z</time></trkpt><trkpt lat="42.389219" lon="2.087226"><ele>2073.281</ele><time>2016-08-03T18:01:52Z</time></trkpt><trkpt lat="42.389278" lon="2.087110"><ele>2071.319</ele><time>2016-08-03T18:02:01Z</time></trkpt><trkpt lat="42.389345" lon="2.087004"><ele>2071.308</ele><time>2016-08-03T18:02:10Z</time></trkpt><trkpt lat="42.389399" lon="2.086900"><ele>2070.377</ele><time>2016-08-03T18:02:18Z</time></trkpt><trkpt lat="42.389461" lon="2.086788"><ele>2069.930</ele><time>2016-08-03T18:02:27Z</time></trkpt><trkpt lat="42.389514" lon="2.086686"><ele>2067.979</ele><time>2016-08-03T18:02:35Z</time></trkpt><trkpt lat="42.389568" lon="2.086589"><ele>2067.576</ele><time>2016-08-03T18:02:43Z</time></trkpt><trkpt lat="42.389619" lon="2.086490"><ele>2067.032</ele><time>2016-08-03T18:02:51Z</time></trkpt><trkpt lat="42.389681" lon="2.086383"><ele>2066.588</ele><time>2016-08-03T18:03:00Z</time></trkpt><trkpt lat="42.389741" lon="2.086278"><ele>2066.056</ele><time>2016-08-03T18:03:08Z</time></trkpt><trkpt lat="42.389793" lon="2.086164"><ele>2065.115</ele><time>2016-08-03T18:03:17Z</time></trkpt><trkpt lat="42.389838" lon="2.086059"><ele>2064.191</ele><time>2016-08-03T18:03:25Z</time></trkpt><trkpt lat="42.389883" lon="2.085947"><ele>2064.181</ele><time>2016-08-03T18:03:33Z</time></trkpt><trkpt lat="42.389926" lon="2.085837"><ele>2063.119</ele><time>2016-08-03T18:03:41Z</time></trkpt><trkpt lat="42.389975" lon="2.085722"><ele>2062.208</ele><time>2016-08-03T18:03:50Z</time></trkpt><trkpt lat="42.390018" lon="2.085605"><ele>2061.720</ele><time>2016-08-03T18:03:59Z</time></trkpt><trkpt lat="42.390068" lon="2.085482"><ele>2060.753</ele><time>2016-08-03T18:04:08Z</time></trkpt><trkpt lat="42.390106" lon="2.085369"><ele>2059.392</ele><time>2016-08-03T18:04:17Z</time></trkpt><trkpt lat="42.390146" lon="2.085254"><ele>2057.859</ele><time>2016-08-03T18:04:26Z</time></trkpt><trkpt lat="42.390198" lon="2.085130"><ele>2057.815</ele><time>2016-08-03T18:04:35Z</time></trkpt><trkpt lat="42.390253" lon="2.085015"><ele>2056.451</ele><time>2016-08-03T18:04:44Z</time></trkpt><trkpt lat="42.390317" lon="2.084911"><ele>2055.919</ele><time>2016-08-03T18:04:53Z</time></trkpt><trkpt lat="42.390379" lon="2.084798"><ele>2055.018</ele><time>2016-08-03T18:05:02Z</time></trkpt><trkpt lat="42.390436" lon="2.084689"><ele>2054.569</ele><time>2016-08-03T18:05:11Z</time></trkpt><trkpt lat="42.390489" lon="2.084586"><ele>2053.504</ele><time>2016-08-03T18:05:19Z</time></trkpt><trkpt lat="42.390550" lon="2.084477"><ele>2052.624</ele><time>2016-08-03T18:05:28Z</time></trkpt><trkpt lat="42.390597" lon="2.084373"><ele>2051.608</ele><time>2016-08-03T18:05:37Z</time></trkpt><trkpt lat="42.390649" lon="2.084269"><ele>2051.637</ele><time>2016-08-03T18:05:45Z</time></trkpt><trkpt lat="42.390706" lon="2.084167"><ele>2050.650</ele><time>2016-08-03T18:05:53Z</time></trkpt><trkpt lat="42.390757" lon="2.084060"><ele>2050.259</ele><time>2016-08-03T18:06:01Z</time></trkpt><trkpt lat="42.390814" lon="2.083936"><ele>2049.216</ele><time>2016-08-03T18:06:10Z</time></trkpt><trkpt lat="42.390856" lon="2.083817"><ele>2048.772</ele><time>2016-08-03T18:06:19Z</time></trkpt></trkseg></trk></gpx>